,site_name,address,city,long,lat,county,phone,website,status
0,Dollar Tree 5522,2222 Business Cir,San Jose,-121.93281,37.323013,Santa Clara,(669) 212-4078,https://www.dollartree.com/locations/ca/san-jose/5522/?utm_source=Google&utm_medium=Maps&utm_campaign=Google+Places,OPERATIONAL
1,"Joya Supermarket, Llc.",2512 California St,Mountain View,-122.10678999999999,37.403904,Santa Clara,(650) 935-2235,http://www.joyasupermarketca.com/,OPERATIONAL
2,Safeway 2887,150 E El Camino Real,Sunnyvale,-122.03108,37.366657000000004,Santa Clara,(408) 732-1259,https://local.safeway.com/safeway/ca/sunnyvale/150-e-el-camino-real.html?utm_source=G&utm_medium=Maps&utm_campaign=G+Places,OPERATIONAL
3,Morgans Hill Market,16935 Monterey St,Morgan Hill,-121.64956000000001,37.124382000000004,Santa Clara,No formatted_phone_number listed,No website listed,OPERATIONAL
4,Bakery/Panaderia La Mejor,1239 E Julian St,San Jose,-121.87021999999999,37.351727000000004,Santa Clara,(408) 287-2447,No website listed,OPERATIONAL
5,6 To Late Food & Liquors,5138 Monterey Hwy,San Jose,-121.81345,37.262405,Santa Clara,No formatted_phone_number listed,No website listed,OPERATIONAL
6,Dollar Tree 5212,2585 Almaden Rd,San Jose,-121.88273999999998,37.283138,Santa Clara,(408) 826-3256,https://www.dollartree.com/locations/ca/san-jose/5212/?utm_source=Google&utm_medium=Maps&utm_campaign=Google+Places,OPERATIONAL
7,TAJ MAHAL,3109 El Camino Real,Santa Clara,-121.98295,37.352505,Santa Clara,(408) 247-4507,http://tajmahalfreshmarket.com/,OPERATIONAL
8,Tolentino's Meat Market,17865 Monterey Rd,Morgan Hill,-121.65817,37.134521,Santa Clara,(831) 269-0292,No website listed,OPERATIONAL
9,Co 6 Trai Cay,992 Story Rd,San Jose,-121.85501000000001,37.330822,Santa Clara,No formatted_phone_number listed,No website listed,No business_status listed
10,GURU'S FOOD & LIQUOR,501 N 17th St,San Jose,-121.88093,37.352528,Santa Clara,(408) 294-9338,No website listed,OPERATIONAL
11,Lucky 222,1641 N Capitol Ave,San Jose,-121.87298,37.397304999999996,Santa Clara,(408) 258-6641,No website listed,OPERATIONAL
12,Etminan Market,1373 Kooser Rd,San Jose,-121.88933999999999,37.246254,Santa Clara,(408) 622-6778,No website listed,OPERATIONAL
13,STORY SUPER MARKET,1200 Story Rd,San Jose,-121.85291000000001,37.333096000000005,Santa Clara,(408) 279-1200,No website listed,OPERATIONAL
14,DELMAS MARKET,101 Delmas Ave,San Jose,-121.89773000000001,37.330172999999995,Santa Clara,(408) 293-1303,No website listed,OPERATIONAL
15,Asian Live Seafood,2559 S King Rd,San Jose,-121.82345,37.319717,Santa Clara,(408) 223-0458,No website listed,OPERATIONAL
16,7-eleven 14265G,1880 Curtner Ave,San Jose,-121.92284,37.275753,Santa Clara,(408) 377-1081,https://www.7-eleven.com/locations/ca/san-jose/1880-curtner-ave-14265?yext=14265,OPERATIONAL
17,Country Store,16390 Monterey St,Morgan Hill,-121.64578,37.117954,Santa Clara,(408) 779-5512,No website listed,OPERATIONAL
18,Phnom Penh Market,2365 Mckee Rd,San Jose,-121.84881000000001,37.366325,Santa Clara,(408) 655-1091,No website listed,OPERATIONAL
19,Baby Nutritional Care 106,7500 Arroyo Cir,Gilroy,-121.55774,37.011906,Santa Clara,(408) 847-1011,No website listed,OPERATIONAL
20,Friends Food & Liqour,343 E 10th St,Gilroy,-121.56218,37.001373,Santa Clara,(408) 848-4200,No website listed,OPERATIONAL
21,Walmart Neighborhood Market 2486,4080 Stevens Creek Blvd,San Jose,-121.97323,37.323132,Santa Clara,(408) 556-4505,https://www.walmart.com/store/2486/san-jose-ca/details,OPERATIONAL
22,One Stop Market,1493 E Bayshore Rd,East Palo Alto,-122.14421999999999,37.462875,Santa Clara,(650) 321-4146,No website listed,OPERATIONAL
23,PANADERIA ORTIZ BAKERY,3826 7 Trees Blvd,San Jose,-121.83521,37.283997,Santa Clara,(408) 225-5013,No website listed,OPERATIONAL
24,7-Eleven 27768B,708 N Fair Oaks Ave,Sunnyvale,-122.01416,37.39151,Santa Clara,(408) 530-8290,https://www.7-eleven.com/locations/ca/sunnyvale/708-n-fair-oaks-ave-27768?yext=27768,OPERATIONAL
25,Morgan Hill Farmers Market,17300 Depot St,Morgan Hill,-121.65065,37.129078,Santa Clara,(800) 806-3276,http://www.cafarmersmkts.com/morgan-hill-farmers-market/,OPERATIONAL
26,Safeway 2948,645 San Antonio Rd,Mountain View,-122.11295,37.402306,Santa Clara,(650) 948-4533,https://local.safeway.com/safeway/ca/mountain-view/645-san-antonio-rd.html?utm_source=G&utm_medium=Maps&utm_campaign=G+Places,OPERATIONAL
27,SAFEWAY  1574,4950 Almaden Expy,San Jose,-121.87623,37.260216,Santa Clara,(408) 267-1200,https://local.safeway.com/safeway/ca/san-jose/4950-almaden-expy.html?utm_source=G&utm_medium=Maps&utm_campaign=G+Places,OPERATIONAL
28,7 Eleven Store 2367 39747A,1031 Leigh Ave,San Jose,-121.92156999999999,37.306129,Santa Clara,(408) 292-7676,https://www.7-eleven.com/locations/ca/san-jose/1031-leigh-ave-39747?yext=39747,OPERATIONAL
29,Mexico Bakery Inc. 1,2811 Story Rd,San Jose,-121.82406999999999,37.352856,Santa Clara,(408) 272-3838,https://mexico-bakery.business.site/,OPERATIONAL
30,7-Eleven 39411A,3145 S Bascom Ave,Campbell,-121.94083,37.266552000000004,Santa Clara,(408) 377-1831,http://www.7-eleven.com/?yext=39411,OPERATIONAL
31,Apna Bazar,1111 W El Camino Real,Sunnyvale,-122.05346999999999,37.373154,Santa Clara,(408) 746-5966,http://www.apnabazar.com/,OPERATIONAL
32,Great America Shell 172,5390 Great America Pkwy,Santa Clara,-121.97781,37.410065,Santa Clara,(408) 982-9040,https://find.shell.com/us/fuel/10013534-5390-great-america-pkwy,OPERATIONAL
33,Lion Foods Llc,2217 Quimby Rd,San Jose,-121.81143,37.32325,Santa Clara,(408) 270-8288,http://www.frescosupermarket.com/,OPERATIONAL
34,Quick N Easy,8429 Murray Ave,Gilroy,-121.56958999999999,37.022015,Santa Clara,(408) 847-4543,No website listed,OPERATIONAL
35,Mi Ranchito Produce,259 E Maude Ave,Sunnyvale,-122.02386000000001,37.38755,Santa Clara,(408) 245-1500,No website listed,OPERATIONAL
36,Nob HIll 636,3555 Monroe St,Santa Clara,-121.99441999999999,37.36692,Santa Clara,(408) 557-0115,https://www.raleys.com/stores/nob-hill-foods-monroe-santa-california/,OPERATIONAL
37,Lunardi's Market 10,2666 S Bascom Ave,San Jose,-121.93471000000001,37.273472,Santa Clara,(408) 377-6661,https://www.lunardis.com/,OPERATIONAL
38,Lundy Liquor Inc,964 Lundy Ave,San Jose,-121.87272,37.373585,Santa Clara,(408) 923-2900,No website listed,OPERATIONAL
39,7-Eleven 23866 E,780 N Winchester Blvd,San Jose,-121.9502,37.329781,Santa Clara,(408) 985-2916,https://www.7-eleven.com/locations/ca/san-jose/780-n.-winchester-blvd-23866?yext=23866,OPERATIONAL
40,Stop-N-Buy 2,175 S Capitol Ave,San Jose,-121.83323999999999,37.359715,Santa Clara,(408) 251-6786,http://www.stopnbuysanjose.com/,OPERATIONAL
41,Chevron 1776,1151 Tully Rd,San Jose,-121.83707,37.314934,Santa Clara,(408) 286-0406,http://www.chevronwithtechron.com/station/1151-Tully-Rd-San-Jose-CA-95122-id92780,OPERATIONAL
42,First Mart,3730 N 1st St,San Jose,-121.94627,37.410545,Santa Clara,(408) 435-8424,No website listed,OPERATIONAL
43,Hyde Park U Save Liquors,1330 N 1st St,San Jose,-121.90861000000001,37.360668,Santa Clara,(408) 453-3035,No website listed,OPERATIONAL
44,Familia Foods,3851 7 Trees Blvd,San Jose,-121.83305,37.283607,Santa Clara,(408) 227-8725,https://familia-foods-market.business.site/,OPERATIONAL
45,Taj Mahal 2,933 E Duane Ave,Sunnyvale,-122.00334,37.388447,Santa Clara,(408) 962-0477,http://www.tajmahalfreshmarket.com/,OPERATIONAL
46,El Charrito Market,7638 Monterey St,Gilroy,-121.57033999999999,37.010567,Santa Clara,(408) 842-3659,https://www.elcharritomarket.com/,OPERATIONAL
47,MY GOODS MARKET 5442,7022 Santa Teresa Blvd,San Jose,-121.77631000000001,37.226555,Santa Clara,(408) 225-7313,http://www.mygoodsmarket.com/,OPERATIONAL
48,Safeway 3241,950 W Hamilton Ave,Campbell,-121.96651999999999,37.294125,Santa Clara,(408) 871-1272,https://local.safeway.com/safeway/ca/campbell/950-w-hamilton-ave.html?utm_source=G&utm_medium=Maps&utm_campaign=G+Places,OPERATIONAL
49,Silver Creek Shell 178,5801 Silver Creek Valley Rd,San Jose,-121.7795,37.276684,Santa Clara,(408) 238-7348,https://find.shell.com/us/fuel/12616028-5801-silver-creek-valley-rd,OPERATIONAL
50,Indo-pak Halal Market,1729 Berryessa Rd,San Jose,-121.87248000000001,37.374538,Santa Clara,(408) 729-4929,No website listed,OPERATIONAL
51,FOOD MAXX  460,1539 Parkmoor Ave,San Jose,-121.91488000000001,37.316708,Santa Clara,(408) 287-5377,http://locations.foodmaxx.com/ll/US/CA/San-Jose/1539-Parkmoor-Avenue,OPERATIONAL
52,Neighborhood Gas Mart,8445 Cabrillo Hwy,Montara,-122.51621000000002,37.541744,Santa Clara,(650) 728-5415,No website listed,OPERATIONAL
53,"Lucky 7 King, Inc. 3",398 S King Rd,San Jose,-121.84858999999999,37.345638,Santa Clara,(408) 254-4500,http://www.lucky7super.com/,OPERATIONAL
54,Rose Market,1250 E Santa Clara St,San Jose,-121.86603000000001,37.347823999999996,Santa Clara,(408) 998-7124,No website listed,OPERATIONAL
55,Carniceria La Sorpresa,311B Moffett Blvd,Mountain View,-122.07618000000001,37.397888,Santa Clara,No formatted_phone_number listed,No website listed,No business_status listed
56,Guadalajara Market,829 Borregas Ave,Sunnyvale,-122.02291000000001,37.397022,Santa Clara,(408) 734-9621,No website listed,OPERATIONAL
57,Walgreens 689,121 E El Camino Real,Mountain View,-122.07225,37.379921,Santa Clara,(650) 961-7555,https://www.walgreens.com/locator/walgreens-121+e+el+camino+real-mountain+view-ca-94040/id=689,OPERATIONAL
58,Paul's Imperio Liquors  2,134 E San Salvador St,San Jose,-121.88336000000001,37.331238,Santa Clara,(408) 490-4898,http://www.bevstore.com/,OPERATIONAL
59,Willow Glen Way Market,450 Willow Glen Way,San Jose,-121.88043,37.304005,Santa Clara,(408) 265-3540,No website listed,OPERATIONAL
60,El dorado Liquor & Market,449 Keyes St,San Jose,-121.86906,37.324139,Santa Clara,(408) 297-2666,No website listed,OPERATIONAL
61,Safeway Community Market 2454,690 Fremont Ave,Los Altos,-122.09676,37.360451,Santa Clara,(650) 948-6648,https://local.andronicos.com/ca/los-altos/690-fremont-ave.html,OPERATIONAL
62,NEW WING YUAN MARKET,1139 N Lawrence Expy,Sunnyvale,-121.99592,37.397301,Santa Clara,No formatted_phone_number listed,No website listed,OPERATIONAL
63,Paps Hecker Pass Liquor 0,221 1st St,Gilroy,-121.57531000000002,37.013828000000004,Santa Clara,(669) 239-0934,No website listed,OPERATIONAL
64,Pauls Imperio Liquor & Taqueria,203 S King Rd,San Jose,-121.85248999999999,37.349602000000004,Santa Clara,(408) 708-7108,http://www.bevstore.com/,OPERATIONAL
65,7-eleven Store 15952,596 N Abel St,Milpitas,-121.91068,37.436249,Santa Clara,(408) 493-6623,https://www.7-eleven.com/locations/ca/milpitas/596-north-abel-ave-15952?yext=15952,OPERATIONAL
66,Lucky 233,3457 McKee Rd,San Jose,-121.82738,37.380749,Santa Clara,(408) 937-6780,No website listed,OPERATIONAL
67,7-eleven 18445e 18445e,315 Saratoga Ave,Santa Clara,-121.96376000000001,37.330402,Santa Clara,(408) 261-3132,https://www.7-eleven.com/locations/ca/santa-clara/315-saratoga-ave-18445?yext=18445,OPERATIONAL
68,Smart & Final 451,1180 S King Rd,San Jose,-121.84148,37.338364,Santa Clara,(408) 251-0109,http://locations.smartandfinal.com/ca/san-jose/451/?utm_source=Google&utm_medium=Maps&utm_campaign=Google+Places,OPERATIONAL
69,7 Eleven 2367- 14288B,404 S 6th St,San Jose,-121.88056,37.332417,Santa Clara,(408) 899-4089,https://www.7-eleven.com/locations/ca/san-jose/404-south-sixth-st-14288?yext=14288,OPERATIONAL
70,Vraich Liquors,901 Vine St,San Jose,-121.88451,37.320060999999995,Santa Clara,(408) 287-1271,No website listed,OPERATIONAL
71,South San Jose Grocery Outlet 151,1665 Foxworthy Ave,San Jose,-121.90686000000001,37.270477,Santa Clara,(408) 440-5920,https://groceryoutlet.com/circulars/storeid/151,OPERATIONAL
72,New Seasons Market - Evergreen 1205,5667 Silver Creek Valley Rd,San Jose,-121.78,37.288387,Santa Clara,(408) 513-8200,https://www.newseasonsmarket.com/our-stores/evergreen/,OPERATIONAL
73,Westside Market and Liquor,1340G 1st St,Gilroy,-121.59663,37.013428000000005,Santa Clara,(408) 842-6399,No website listed,OPERATIONAL
74,SMART & FINAL 432,141 E El Camino Real,Mountain View,-122.07168999999999,37.379692,Santa Clara,(650) 962-1092,http://locations.smartandfinal.com/ca/mountain-view/432/?utm_source=Google&utm_medium=Maps&utm_campaign=Google+Places,OPERATIONAL
75,Sprouts Farmers Market 287,20558 Stevens Creek Blvd,Cupertino,-122.03322,37.322784000000006,Santa Clara,(408) 780-7748,https://sprouts.com/store/ca/cupertino/cupertino,OPERATIONAL
76,7 Eleven 14220G,1444 S Winchester Blvd,San Jose,-121.94985,37.297779,Santa Clara,(408) 374-2380,https://www.7-eleven.com/locations/ca/san-jose/1444-s.-winchester-blvd-14220?yext=14220,OPERATIONAL
77,Spartan Market,351 E William St,San Jose,-121.87733,37.332198999999996,Santa Clara,(408) 295-8227,No website listed,OPERATIONAL
78,Kaiser Santa Clara,710 Lawrence Expy,Santa Clara,-121.99582,37.335438,Santa Clara,(408) 554-9810,https://thrive.kaiserpermanente.org/care-near-you/northern-california/santaclara/departments/pediatric-specialty/,OPERATIONAL
79,Delizias Bakery Inc.,3975 Senter Rd,San Jose,-121.82426000000001,37.283581,Santa Clara,(408) 224-9907,https://deliziasbakery317.wixsite.com/deliziasbakery,OPERATIONAL
80,Olivera Egg Ranch Store,3315 Sierra Rd,San Jose,-121.84563999999999,37.400425,Santa Clara,(408) 258-8074,https://www.facebook.com/pages/Olivera-Egg-Ranch/148704361818528,OPERATIONAL
81,Bird Avenue Shell 18,395 Bird Ave,San Jose,-121.89967,37.323586,Santa Clara,(408) 289-8111,https://www.chevronwithtechron.com/station,OPERATIONAL
82,San Martin Market,13320 Depot St,San Martin,-121.60951999999999,37.085575,Santa Clara,(408) 683-4063,No website listed,OPERATIONAL
83,La Plaza Market 3,515 McLaughlin Ave,San Jose,-121.86193,37.341007,Santa Clara,(669) 272-0888,http://www.laplazasupermarket.com/,OPERATIONAL
84,GURU'S MARKET,148 GEORGE ST,SAN JOSE,-121.90136000000001,37.346806,Santa Clara,(408) 295-3344,No website listed,OPERATIONAL
85,TAK FOOD & LIQUOR,1091 McCreery Ave,San Jose,-121.84091000000001,37.342327000000004,Santa Clara,(408) 251-7363,No website listed,OPERATIONAL
86,Smart & Final 810,1290 W San Carlos St,San Jose,-121.91115,37.323383,Santa Clara,(408) 200-1523,http://locations.smartandfinal.com/ca/san-jose/810/?utm_source=Google&utm_medium=Maps&utm_campaign=Google+Places,OPERATIONAL
87,Dollar Tree 4681,2155 Tully Rd,San Jose,-121.81955,37.326813,Santa Clara,(408) 678-4181,https://www.dollartree.com/locations/ca/san-jose/4681/?utm_source=Google&utm_medium=Maps&utm_campaign=Google+Places,OPERATIONAL
88,Quick Henderson Market,1053 E El camino Real,Sunnyvale,-122.00435,37.352318,Santa Clara,(408) 247-3007,https://liquor-store-quick-henderson-market.business.site/,OPERATIONAL
89,Liquor And Grocery,4645 Cherry Ave,San Jose,-121.88503999999999,37.259979,Santa Clara,(408) 265-3925,No website listed,OPERATIONAL
90,Alma's Liquor & Grocery,148 W Alma Ave,San Jose,-121.87646000000001,37.314278,Santa Clara,(408) 287-5395,No website listed,OPERATIONAL
91,Wing Lee Fresh Poultry & Meat,1166 Tully Rd,San Jose,-121.83611,37.315289,Santa Clara,(408) 931-6558,No website listed,OPERATIONAL
92,Gonzalez Produce 1,1590 Berryessa Rd,San Jose,-121.8796,37.369144,Santa Clara,(408) 453-1110,http://www.sjfm.com/,OPERATIONAL
93,Los Altos Farmers Market,1 Second And State St,Los Altos,-122.11737,37.379169,Santa Clara,(925) 465-4690,http://cafarmersmkts.com/markets/category/los-altos-farmers-market,OPERATIONAL
94,"Fancy Foods, Inc.",2523 Winchester Blvd,Campbell,-121.95003,37.277313,Santa Clara,(408) 376-3766,No website listed,OPERATIONAL
95,Roadrunenr Petroleum Inc 01,1111 N Capitol Ave,San Jose,-121.86033,37.386162,Santa Clara,(669) 284-9932,https://www.chevronwithtechron.com/station/,OPERATIONAL
96,SAFEWAY  1293,2341 Winchester Blvd,Campbell,-121.94986999999999,37.280491,Santa Clara,(408) 364-6880,https://local.safeway.com/safeway/ca/campbell/2341-s-winchester-blvd.html?utm_source=G&utm_medium=Maps&utm_campaign=G+Places,OPERATIONAL
97,WALGREEN 4372,780 E Santa Clara St,San Jose,-121.87477,37.343636,Santa Clara,(408) 287-0600,https://www.walgreens.com/locator/walgreens-780+e+santa+clara+st-san+jose-ca-95112/id=4372,OPERATIONAL
98,Desi Bazar Desi Kitchen (my Bangla Bazar) Store-2,712 S Wolfe Rd,Sunnyvale,-122.01376,37.366023999999996,Santa Clara,(669) 214-5550,http://www.desikitchenus.com/,OPERATIONAL
99,WALGREENS 5480,1833 N Milpitas Blvd,Milpitas,-121.91139,37.456753000000006,Santa Clara,(408) 262-7774,https://www.walgreens.com/locator/walgreens-1833+n+milpitas+blvd-milpitas-ca-95035/id=5480,OPERATIONAL
100,Mapleleaf Liquor,1146 Saratoga Ave,San Jose,-121.97917,37.303963,Santa Clara,(408) 246-2870,No website listed,OPERATIONAL
101,Me-Kong Supermarket,777 E Capitol Ave,Milpitas,-121.88895,37.407825,Santa Clara,(408) 942-1777,No website listed,OPERATIONAL
102,Tropical Fruits,3005 Silver Creek Rd,San Jose,-121.8133,37.30986,Santa Clara,(408) 238-6868,No website listed,OPERATIONAL
103,The Citi Mini Market,1354 The Alameda,San Jose,-121.91333,37.332699,Santa Clara,(408) 279-2085,No website listed,OPERATIONAL
104,Quick Buy Market,2021 Homestead Rd,Santa Clara,-121.96007,37.343636,Santa Clara,(408) 246-6841,No website listed,OPERATIONAL
105,Desi International Market,1290 S Bascom Ave,San Jose,-121.93167,37.301769,Santa Clara,(408) 292-0878,No website listed,OPERATIONAL
106,Super Kyopo Plaza 1,3521 Homestead Rd,Santa Clara,-121.99426000000001,37.337856,Santa Clara,(408) 243-9005,No website listed,OPERATIONAL
107,SMART & FINAL 433,5281 Prospect Rd,San Jose,-121.99468999999999,37.292206,Santa Clara,(408) 517-8803,http://locations.smartandfinal.com/ca/san-jose/433/?utm_source=Google&utm_medium=Maps&utm_campaign=Google+Places,OPERATIONAL
108,Starlite Shell 35,1780 S Main St,Milpitas,-121.90285,37.404861,Santa Clara,No formatted_phone_number listed,No website listed,OPERATIONAL
109,MCKEE LIQUOR,3750 McKee Rd,San Jose,-121.83046999999999,37.378547999999995,Santa Clara,(408) 929-1111,No website listed,OPERATIONAL
110,7 Eleven 2236-14315g 14315G,708 Colorado Ave,Palo Alto,-122.1282,37.433147,Santa Clara,(650) 328-6369,https://www.7-eleven.com/locations/ca/palo-alto/708-colorado-ave-14315?yext=14315,OPERATIONAL
111,Bonfare Market 39,5251 Camden Ave,San Jose,-121.90561000000001,37.242573,Santa Clara,(408) 264-3339,http://www.bonfaremarkets.com/,OPERATIONAL
112,Dollar Tree 5488,3065 Meridian Ave,San Jose,-121.90545,37.269737,Santa Clara,(408) 826-3896,https://www.dollartree.com/locations/ca/san-jose/5488/?utm_source=Google&utm_medium=Maps&utm_campaign=Google+Places,OPERATIONAL
113,Safeway 2814,160 1st St,Los Altos,-122.11883999999999,37.3792,Santa Clara,(650) 941-1801,https://local.safeway.com/safeway/ca/los-altos/160-1st-st.html?utm_source=G&utm_medium=Maps&utm_campaign=G+Places,OPERATIONAL
114,7 Eleven Inc 14212C,3580 Monroe St,Santa Clara,-121.99502,37.366821,Santa Clara,(408) 984-1177,https://www.7-eleven.com/locations/ca/santa-clara/3580-monroe-st-14212?yext=14212,OPERATIONAL
115,Garden Market,1933 Pulgas Ave,East Palo Alto,-122.12993,37.455166,Santa Clara,(650) 323-7626,No website listed,OPERATIONAL
116,Morgan Hill Foods,225 W Main Ave,Morgan Hill,-121.65903999999999,37.127865,Santa Clara,(408) 779-2156,https://regionmarket.store/,OPERATIONAL
117,Namaste Plaza,1637 Hollenbeck Ave,Sunnyvale,-122.04256000000001,37.339290999999996,Santa Clara,(408) 738-9115,http://namastecart.com/,OPERATIONAL
118,BONFARE MARKET 11,408 W Capitol Expy,San Jose,-121.85023999999999,37.274433,Santa Clara,(408) 578-5688,http://www.bonfaremarkets.com/,OPERATIONAL
119,7 Eleven 2367-1740C,2335 Winchester Blvd,Campbell,-121.94986999999999,37.280704,Santa Clara,(408) 370-2055,https://www.7-eleven.com/locations/ca/campbell/2335-s.-winchester-blvd-17406?yext=17406,OPERATIONAL
120,7-eleven Store 16117D,5152 Monterey Hwy,San Jose,-121.81313,37.262215000000005,Santa Clara,(408) 225-2593,https://www.7-eleven.com/locations/ca/san-jose/5152-monterey-rd-16117?yext=16117,OPERATIONAL
121,Quik Stop Market 5034,2704 S Bascom Ave,San Jose,-121.93571000000001,37.272259000000005,Santa Clara,(408) 371-1160,http://www.quikstop.com/,OPERATIONAL
122,Walmart SuperCenter 5884,5095 Almaden Expy,San Jose,-121.87615,37.256878,Santa Clara,(408) 600-3072,https://www.walmart.com/store/5884/san-jose-ca/details,OPERATIONAL
123,Apatzingan Meat Market,7237 Monterey St,Gilroy,-121.56759,37.004326,Santa Clara,(408) 848-8222,No website listed,OPERATIONAL
124,AC Grocery,702 E Santa Clara St,San Jose,-121.87602,37.343037,Santa Clara,(650) 201-8618,No website listed,OPERATIONAL
125,Berryessa Farmers' Market,1376 Piedmont Rd,San Jose,-121.84891,37.403904,Santa Clara,(925) 825-9090,http://pcfma.org/,OPERATIONAL
126,Evergreen Farmers' Market,4055 Evergreen Village Sq,San Jose,-121.77356999999999,37.313686,Santa Clara,(925) 825-9090,http://pcfma.org/,OPERATIONAL
127,Discount Mini Mart 2,1587 Kooser Rd,San Jose,-121.90302,37.240520000000004,Santa Clara,(408) 445-9220,No website listed,OPERATIONAL
128,JT Liquors,2627 Senter Rd,San Jose,-121.84248000000001,37.302399,Santa Clara,(408) 295-3278,No website listed,OPERATIONAL
129,Milpitas Farmers' Market,525 Los Coches St,Milpitas,-121.89535,37.431377000000005,Santa Clara,(925) 825-9090,http://pcfma.org/,OPERATIONAL
130,San Jose Downtown Farmers' Market,18 N San Pedro St,San Jose,-121.89316000000001,37.335547999999996,Santa Clara,(408) 279-1775,http://sjdowntown.com/farmers-market-presented-by-kaiser-permanente/,OPERATIONAL
131,Santa Teresa Farmers' Market,6232 Santa Teresa Blvd,San Jose,-121.80163,37.237053,Santa Clara,(925) 825-9090,http://pcfma.org/,OPERATIONAL
132,Garlic Farm Food Centre 51,5920 Travel Park Cir,Gilroy,-121.5564,36.985034999999996,Santa Clara,(408) 847-9702,http://www.thegarlicfarm.com/location.html,OPERATIONAL
133,7 Eleven 2367 37256A,2230 Stevens Creek Blvd,San Jose,-121.9333,37.323254,Santa Clara,No formatted_phone_number listed,https://www.7-eleven.com/,OPERATIONAL
134,Petes Stop & Mini Mart,290 Keyes St,San Jose,-121.87218,37.322586,Santa Clara,(408) 995-5542,No website listed,OPERATIONAL
135,Dollar Tree 4978,199 E Middlefield Rd,Mountain View,-122.06187,37.397694,Santa Clara,(650) 386-4494,https://www.dollartree.com/locations/ca/mountain-view/4978/?utm_source=Google&utm_medium=Maps&utm_campaign=Google+Places,OPERATIONAL
136,4th & Santa Clara Chevron,147 E Santa Clara St,San Jose,-121.88763999999999,37.337616,Santa Clara,(408) 295-3964,https://www.chevronwithtechron.com/,OPERATIONAL
137,Walgreens 12548,1130 Foxworthy Ave,San Jose,-121.88103999999998,37.277706,Santa Clara,(408) 723-9905,https://www.walgreens.com/locator/walgreens-1130+foxworthy+ave-san+jose-ca-95118/id=12548,OPERATIONAL
138,Miami Liquor & Food 1,876 The Alameda,San Jose,-121.90722,37.331692,Santa Clara,(408) 982-3605,No website listed,OPERATIONAL
139,Y Market & Liquor,233 S White Rd,San Jose,-121.82526999999999,37.362789,Santa Clara,(408) 926-8800,https://y-market.business.site/,OPERATIONAL
140,Walgreens 2739,440 Blossom Hill Rd,San Jose,-121.83023,37.251202,Santa Clara,(408) 229-8013,https://www.walgreens.com/locator/walgreens-440+blossom+hill+rd-san+jose-ca-95123/id=2739,OPERATIONAL
141,Mj Market,1187 Redmond Ave,San Jose,-121.87318,37.229347,Santa Clara,(408) 268-5357,https://m-j-market.business.site/,OPERATIONAL
142,7 Eleven 14242D,57 S Park Victoria Dr,Milpitas,-121.88382,37.434048,Santa Clara,(408) 770-9248,https://www.7-eleven.com/locations/ca/milpitas/57-s.-park-victoria-14242?yext=14242,OPERATIONAL
143,King's Seafood Center Inc,425 E El Camino Real,Sunnyvale,-122.02819,37.364613,Santa Clara,(408) 749-8014,No website listed,OPERATIONAL
144,TAK MARKET & LIQUOR INC,698 N 3rd St,San Jose,-121.898,37.35006,Santa Clara,(408) 712-5463,No website listed,OPERATIONAL
145,Walmart Supercenter 2119,301 Ranch Dr,Milpitas,-121.91994,37.432354,Santa Clara,(408) 934-0304,https://www.walmart.com/store/2119/milpitas-ca/details,OPERATIONAL
146,Arteaga's Food Center,6906 Automall Pkwy,Gilroy,-121.5602,37.000370000000004,Santa Clara,(408) 847-7542,http://www.arteagas.com/,OPERATIONAL
147,7 Eleven 35644B,601 Bird Ave,San Jose,-121.89804,37.320038000000004,Santa Clara,(408) 971-1003,https://www.7-eleven.com/locations/ca/san-jose/601-bird-ave-35644?yext=35644,OPERATIONAL
148,Conasuper,3828 Seven Trees Blvd,San Jose,-121.83516000000002,37.283997,Santa Clara,(408) 677-0876,No website listed,OPERATIONAL
149,FOOD MAXX  461,1972 Tully Rd,San Jose,-121.82151999999999,37.325153,Santa Clara,(408) 270-2945,http://locations.foodmaxx.com/ll/US/CA/San-Jose/1972-Tully-Road,OPERATIONAL
150,Sprouts Farmers Market 271,630 San Antonio Rd,Mountain View,-122.11312,37.402195,Santa Clara,(650) 397-3001,https://sprouts.com/store/ca/mountain-view/mountain-view,OPERATIONAL
151,Bonfare Market 9,5489 Snell Ave,San Jose,-121.83097,37.253845,Santa Clara,(408) 229-1201,http://www.bonfaremarkets.com/,OPERATIONAL
152,Almaden/via Valiente Farmer Market,6902 Almaden Expy,San Jose,-121.84908,37.212337,Santa Clara,No formatted_phone_number listed,No website listed,CLOSED_TEMPORARILY
153,Sprouts Farmers Market 269,5205 Prospect Rd,San Jose,-121.99393,37.292088,Santa Clara,(408) 725-3970,https://sprouts.com/store/ca/san-jose/san-jose-prospect-rd,OPERATIONAL
154,Walgreens 13948,1905 W El Camino Real,Mountain View,-122.0963,37.392788,Santa Clara,(650) 967-3531,https://www.walgreens.com/locator/walgreens-1905+w+el+camino+real-mountain+view-ca-94040/id=13948,OPERATIONAL
155,7 Eleven 2367 15532E,3775 Williams Rd,San Jose,-121.96693,37.308495,Santa Clara,(408) 244-1471,https://www.7-eleven.com/locations/ca/san-jose/3775-williams-rd-15532?yext=15532,OPERATIONAL
156,Bonfare Market   22,1175 E Julian St,San Jose,-121.87105,37.351162,Santa Clara,(408) 295-7287,http://www.bonfaremarkets.com/,OPERATIONAL
157,Mi Tierra Super Mercado,1130 E Santa Clara St,San Jose,-121.86781,37.346947,Santa Clara,(408) 294-9075,No website listed,OPERATIONAL
158,Patron Liquors & Grocery Store,252 Willow St,San Jose,-121.88338,37.318218,Santa Clara,No formatted_phone_number listed,No website listed,No business_status listed
159,Don Mateo Foods And Spices,1062 E Santa Clara St,San Jose,-121.86943000000001,37.346195,Santa Clara,(408) 295-5399,No website listed,OPERATIONAL
160,Mercado San Jose,3054 Alum Rock Ave,San Jose,-121.82878999999998,37.365368,Santa Clara,(408) 272-1111,No website listed,OPERATIONAL
161,7 Eleven 14216f 14216F,281 Washington St,Santa Clara,-121.94049,37.343231,Santa Clara,(408) 241-8389,https://www.7-eleven.com/locations/ca/santa-clara/281-washington-st-14216?yext=14216,OPERATIONAL
162,Lafayette Food & Liquor,1670 Lafayette St,Santa Clara,-121.94676000000001,37.356445,Santa Clara,(408) 241-4156,http://www.californialiquor.com/,OPERATIONAL
163,Maxim Market 3,955 Mclaughlin Ave,San Jose,-121.85566999999999,37.334618,Santa Clara,(408) 279-3388,No website listed,OPERATIONAL
164,Cabrillo Market And Liquors,3203 Cabrillo Ave,Santa Clara,-121.98463000000001,37.358269,Santa Clara,(408) 296-6468,No website listed,OPERATIONAL
165,DOLLARTREE 8281,4095 Evrgrn Village Sq.,San Jose,-121.67546000000002,37.265144,Santa Clara,(408) 960-7001,https://www.dollartree.com/locations/ca/san-jose/8281/?utm_source=Google&utm_medium=Maps&utm_campaign=Google+Places,OPERATIONAL
166,Paul's Grocery Market,17020 Condit Rd,Morgan Hill,-121.63075,37.133415,Santa Clara,(408) 782-7490,No website listed,OPERATIONAL
167,7-Eleven 36004A,1255 E Santa Clara St,San Jose,-121.86585,37.347977,Santa Clara,(408) 293-2652,https://www.7-eleven.com/locations/ca/san-jose/1255-e-santa-clara-36004?yext=36004,OPERATIONAL
168,Sprouts Farmers Market 270,1130 Branham Ln,San Jose,-121.8792,37.262271999999996,Santa Clara,(408) 833-1152,https://sprouts.com/store/ca/san-jose/san-jose-branham-ln,OPERATIONAL
169,CVS/pharmacy 422,4110 N 1st St,San Jose,-121.95301,37.414696,Santa Clara,(408) 434-1839,https://www.cvs.com/store-locator/cvs-pharmacy-address/4110+N+First+St-San+Jose-CA-95134/storeid=422?WT.mc_id=LS_GOOGLE_FS_422,OPERATIONAL
170,SMART & FINAL 448,2065 El Camino Real,Santa Clara,-121.96113000000001,37.352497,Santa Clara,(408) 296-3293,http://locations.smartandfinal.com/ca/santa-clara/448/?utm_source=Google&utm_medium=Maps&utm_campaign=Google+Places,OPERATIONAL
171,Lucky 762,6109 Meridian Ave,San Jose,-121.88448000000001,37.228176,Santa Clara,(408) 997-3100,No website listed,OPERATIONAL
172,Kwik Serv,2211 Monroe St,Santa Clara,-121.96245,37.361626,Santa Clara,(408) 244-7776,https://www.petro.com/,OPERATIONAL
173,Whole Foods Market 10027,15980 Los Gatos Blvd,Los Gatos,-121.96278000000001,37.236111,Santa Clara,(408) 358-4434,http://www.wholefoodsmarket.com/stores/losgatos,OPERATIONAL
174,WALGREENS 2265,1130 Bird Ave,San Jose,-121.89497,37.31057,Santa Clara,(408) 295-7768,https://www.walgreens.com/locator/walgreens-1130+bird+ave-san+jose-ca-95125/id=2265,OPERATIONAL
175,WALGREENS 02612,200 N Winchester Blvd,Santa Clara,-121.9503,37.329929,Santa Clara,(408) 247-1894,https://www.walgreens.com/locator/walgreens-200+n+winchester+blvd-santa+clara-ca-95050/id=2612,OPERATIONAL
176,Real Produce Inc,5353 Almaden Express Way,San Jose,-121.87563999999999,37.252346,Santa Clara,(408) 723-7325,No website listed,OPERATIONAL
177,New India Bazar 7,2850 Quimby Rd,San Jose,-121.79806,37.325103999999996,Santa Clara,(408) 223-9978,http://www.newindiabazar.com/,OPERATIONAL
178,Arteagas Food Center (santa Clara),2103 Scott Blvd,Santa Clara,-121.95946,37.361137,Santa Clara,(408) 645-5005,https://arteagas.com/,OPERATIONAL
179,LIL GROCER,5807 Cottle Rd,San Jose,-121.80402,37.245846,Santa Clara,(408) 365-8722,No website listed,OPERATIONAL
180,Whole Foods Market 10033,1690 S Bascom Ave,Campbell,-121.93153999999998,37.292759000000004,Santa Clara,(408) 371-5000,http://www.wholefoodsmarket.com/stores/campbell,OPERATIONAL
181,Jl Produce,311 Moffett Blvd,Mountain View,-122.07621,37.397881,Santa Clara,(650) 428-1105,No website listed,OPERATIONAL
182,7-Eleven 39690A,190 W Calaveras Blvd,Milpitas,-121.91016,37.427795,Santa Clara,(408) 262-7324,https://www.7-eleven.com/locations/ca/milpitas/190-calaveras-39690?yext=39690,OPERATIONAL
183,Franco Imports,157 Old Gilroy St,Gilroy,-121.56608,37.005917,Santa Clara,(408) 848-5424,No website listed,OPERATIONAL
184,7 Eleven 14262D,5745 Camden Ave,San Jose,-121.90356000000001,37.232525,Santa Clara,(408) 267-1150,https://www.7-eleven.com/locations/ca/san-jose/5745-camden-avenue-14262?yext=14262,OPERATIONAL
185,Easy Mart II,1460 Oakland Rd,San Jose,-121.89436,37.373802000000005,Santa Clara,(408) 453-0653,No website listed,OPERATIONAL
186,T.T. SEAFOOD 1,2517 S King Rd,San Jose,-121.82413999999999,37.320434999999996,Santa Clara,(408) 274-8210,No website listed,OPERATIONAL
187,99 RANCH MARKET 68,10983 N Wolfe Rd,Cupertino,-122.01438,37.336452,Santa Clara,(408) 532-8899,http://www.99ranch.com/,OPERATIONAL
188,Lucky 780,484 N Mathilda Ave,Sunnyvale,-122.03056000000001,37.388706,Santa Clara,(408) 737-1834,No website listed,OPERATIONAL
189,BILLS MARKET,204 Oakland Ave,San Jose,-121.84798,37.351971,Santa Clara,(408) 259-7271,No website listed,OPERATIONAL
190,Quik Stop 9094,1510 Mt Pleasant Dr,San Jose,-121.80056,37.355255,Santa Clara,(408) 926-4010,http://www.quikstop.com/,OPERATIONAL
191,Target 3265,1775 E Bayshore Rd,East Palo Alto,-122.1373,37.458858,Santa Clara,(650) 388-7949,https://www.target.com/sl/east-palo-alto-ca/3265,OPERATIONAL
192,SAFEWAY  1476,1300 W San Carlos St,San Jose,-121.91166000000001,37.323483,Santa Clara,(408) 882-0999,https://local.safeway.com/safeway/ca/san-jose/1300-w-san-carlos-st.html?utm_source=G&utm_medium=Maps&utm_campaign=G+Places,OPERATIONAL
193,SAFEWAY  1505,905 1st St,Gilroy,-121.5891,37.013607,Santa Clara,(408) 842-6446,https://local.safeway.com/safeway/ca/gilroy/905-first-st.html?utm_source=G&utm_medium=Maps&utm_campaign=G+Places,OPERATIONAL
194,Madina Halal Market,2268 Senter Rd,San Jose,-121.85008,37.310417,Santa Clara,(669) 230-5934,No website listed,OPERATIONAL
195,Lucky 774,234 Saratoga Ave,Santa Clara,-121.96555,37.328583,Santa Clara,(408) 296-0515,No website listed,OPERATIONAL
196,"Rica Panaderia, Inc. 3",1663 Tully Rd,San Jose,-121.82717,37.321632,Santa Clara,(408) 923-5126,No website listed,OPERATIONAL
197,Chavez Supermarket,2327 McKee Rd,San Jose,-121.84921000000001,37.366058,Santa Clara,(408) 929-5208,http://www.chavezsuper.com/,OPERATIONAL
198,Mabury Market,788 N King Rd,San Jose,-121.86907,37.366562,Santa Clara,(669) 284-6101,No website listed,OPERATIONAL
199,EARLS BOTTLE SHOP,299 S Capitol Ave,San Jose,-121.8325,37.358554999999996,Santa Clara,(408) 926-1815,No website listed,OPERATIONAL
200,Halal Market,583 Saratoga Ave,Santa Clara,-121.95475,37.341194,Santa Clara,(408) 260-0327,No website listed,OPERATIONAL
201,Lucky 763,844 Blossom Hill Rd,San Jose,-121.8568,37.250225,Santa Clara,(408) 578-8484,No website listed,OPERATIONAL
202,Maiwand Market Of Santa Clara,2915 El Camino Real,Santa Clara,-121.97946999999999,37.352478000000005,Santa Clara,(408) 985-0988,http://www.maiwandmarket.com/,OPERATIONAL
203,WALGREENS 2740,3460 El Camino Real,Santa Clara,-121.99217,37.352253000000005,Santa Clara,(408) 261-1047,https://www.walgreens.com/locator/walgreens-3460+el+camino+real-santa+clara-ca-95051/id=2740,OPERATIONAL
204,SAFEWAY  1465,5146 Stevens Creek Blvd,San Jose,-121.99318999999998,37.323013,Santa Clara,(408) 556-0610,https://local.safeway.com/safeway/ca/san-jose/5146-stevens-creek-blvd.html?utm_source=G&utm_medium=Maps&utm_campaign=G+Places,OPERATIONAL
205,Marina Brothers Inc./Marina Grocery,4148 Monterey Hwy,San Jose,-121.83511000000001,37.278095,Santa Clara,No place found,No place found,No place found
206,WALGREENS 02957,1660 Winchester Blvd,Campbell,-121.94986999999999,37.293071999999995,Santa Clara,(408) 378-7916,https://www.walgreens.com/locator/walgreens-1660+winchester+blvd-campbell-ca-95008/id=2957,OPERATIONAL
207,Diridon Market,98 Sunol St,San Jose,-121.90619,37.329082,Santa Clara,(408) 292-4156,No website listed,OPERATIONAL
208,99 RANCH MARKET 61,1688 Hostetter Rd,San Jose,-121.88394,37.387691,Santa Clara,(408) 436-8899,http://www.99ranch.com/,OPERATIONAL
209,"NMSO, Inc. 68202",1598 Alum Rock Ave,San Jose,-121.85916999999999,37.351036,Santa Clara,(408) 259-1841,No website listed,OPERATIONAL
210,"NMSO, Inc. 68204",2790 Story Rd,San Jose,-121.82458000000001,37.352385999999996,Santa Clara,No formatted_phone_number listed,No website listed,No business_status listed
211,Rotten Robbie 42,455 E Julian St,San Jose,-121.88463999999999,37.344947999999995,Santa Clara,(408) 294-8924,http://www.rottenrobbie.com/,OPERATIONAL
212,La Morenita Produce,575 1st St,Gilroy,-121.57967,37.013435,Santa Clara,(831) 206-7993,No website listed,OPERATIONAL
213,DOLLARTREE 7810,6741 Camino Arroyo,Gilroy,-121.55001999999999,37.001019,Santa Clara,(408) 427-0046,https://www.dollartree.com/locations/ca/gilroy/7810/?utm_source=Google&utm_medium=Maps&utm_campaign=Google+Places,OPERATIONAL
214,7 Eleven 23585d 23585D,706 Benton St,Santa Clara,-121.941,37.351692,Santa Clara,(408) 260-9083,https://www.7-eleven.com/locations/ca/santa-clara/706-benton-st-23585?yext=23585,OPERATIONAL
215,Grewal Food & Liquor,517 Mclaughlin Ave,San Jose,-121.86118,37.340286,Santa Clara,(408) 295-5751,https://grewal-food-liquors.business.site/,OPERATIONAL
216,King Tully Shell 161,1698 Tully Rd,San Jose,-121.82613,37.322044,Santa Clara,(408) 238-6259,https://find.shell.com/us/fuel/10008277-1698-tully-road,OPERATIONAL
217,Santana Row Farmers Market,378 Between Olin Ave & Olsen Dr.,San Jose,-121.94872,37.320434999999996,Santa Clara,(800) 806-3276,http://www.cafarmersmkts.com/santanarow-farmers-market/,OPERATIONAL
218,Walmart Neighborhood Market 3023,4055 Evergreen Village Square,San Jose,-121.77354,37.313759000000005,Santa Clara,(408) 826-0338,https://www.walmart.com/store/3023/san-jose-ca/details,OPERATIONAL
219,7 Eleven 25950A,1002 W Evelyn Ave,Sunnyvale,-122.04517,37.383175,Santa Clara,(408) 735-1711,https://www.7-eleven.com/locations/ca/sunnyvale/1002-west-evelyn-ave-25950?yext=25950,OPERATIONAL
220,Target Store T-1927,879 Blossom Hill Rd,San Jose,-121.8614,37.25053,Santa Clara,(408) 513-3002,https://www.target.com/sl/san-jose-oakridge/1927,OPERATIONAL
221,ECONO LIQUOR & FOODS,3112 McKee Rd,San Jose,-121.83538,37.375217,Santa Clara,(408) 929-1111,No website listed,OPERATIONAL
222,SMART & FINAL 327,1265 S Mary Ave,Sunnyvale,-122.05061,37.352428,Santa Clara,(408) 245-4423,http://locations.smartandfinal.com/ca/sunnyvale/327/?utm_source=Google&utm_medium=Maps&utm_campaign=Google+Places,OPERATIONAL
223,LOS CUATES MARKET,1511 S Winchester Blvd,San Jose,-121.94997,37.296577,Santa Clara,(408) 374-4304,No website listed,OPERATIONAL
224,Target Store T-2238,3155 Silver Creek Rd,San Jose,-121.81133,37.307522,Santa Clara,(408) 238-7800,https://www.target.com/sl/san-jose-east/2238,OPERATIONAL
225,ROSE INTERNATIONAL MARKET,1060 Castro St,Mountain View,-122.08471999999999,37.384464,Santa Clara,(650) 960-1900,http://rosemarketcatering.com/,OPERATIONAL
226,Russian Cafe & Deli,1712 Winchester Blvd,Campbell,-121.94985,37.292248,Santa Clara,(408) 379-6680,http://russiancafedeli.com/,OPERATIONAL
227,Smart & Final 589,270 E 10th St,Gilroy,-121.56251999999999,37.00119,Santa Clara,(408) 846-7020,http://locations.smartandfinal.com/ca/gilroy/589/?utm_source=Google&utm_medium=Maps&utm_campaign=Google+Places,OPERATIONAL
228,DOLLAR TREE 1254,331 N Capitol Ave,San Jose,-121.84388999999999,37.370739,Santa Clara,(408) 678-3452,https://www.dollartree.com/locations/ca/san-jose/1254/?utm_source=Google&utm_medium=Maps&utm_campaign=Google+Places,OPERATIONAL
229,Habesha Mini Mart,394 Bird Ave,San Jose,-121.89923999999999,37.323505,Santa Clara,(408) 294-4707,https://habesha-mini-mart.business.site/?utm_source=gmb&utm_medium=referral,OPERATIONAL
230,RITE AID 5984,6091 Meridian Ave,San Jose,-121.88434,37.229099,Santa Clara,(408) 927-7900,https://www.riteaid.com/locations/ca/san-jose/6091-meridian-avenue.html,OPERATIONAL
231,RITE AID 5985,1029 E Capitol Expy,San Jose,-121.82276,37.299416,Santa Clara,(408) 629-6060,https://www.riteaid.com/locations/ca/san-jose/1029-east-capitol-expressway.html,OPERATIONAL
232,RITE AID 5987,3171 Meridian Ave,San Jose,-121.90483,37.268108000000005,Santa Clara,(408) 266-5550,https://www.riteaid.com/locations/ca/san-jose/3171-meridian-avenue.html,OPERATIONAL
233,Mi Rancho Supermarket,3840 Monterey Hwy,San Jose,-121.839,37.281898,Santa Clara,(408) 622-5344,http://www.miranchosupermarket.com/,OPERATIONAL
234,Meridian Shell 160,1610 Meridian Ave,San Jose,-121.91351999999999,37.294090000000004,Santa Clara,(408) 266-8510,https://find.shell.com/us/fuel/10008274-1610-meridian-avenue,OPERATIONAL
235,RITE AID 5972,15920 Los Gatos Blvd,Los Gatos,-121.96231999999999,37.237125,Santa Clara,(408) 358-2715,https://www.riteaid.com/locations/ca/los-gatos/15920-los-gatos-boulevard.html,OPERATIONAL
236,RITE AID 5976,2620 El Camino Real,Santa Clara,-121.97408,37.352261,Santa Clara,(408) 241-0919,https://locations.riteaid.com/locations/ca/santa-clara/2620-el-camino-real.html,OPERATIONAL
237,RITE AID 5983,6215 Santa Teresa Blvd,San Jose,-121.80271,37.236954,Santa Clara,(408) 227-2816,https://www.riteaid.com/locations/ca/san-jose/6215-santa-teresa-boulevard.html,OPERATIONAL
238,7 ELEVEN 21735D,998 Lundy Ave,San Jose,-121.87273,37.373653000000004,Santa Clara,(408) 937-4397,https://www.7-eleven.com/locations/ca/san-jose/998-lundy-ave-21735?yext=21735,OPERATIONAL
239,7 ELEVEN 14243C,3777 Lafayette St,Santa Clara,-121.95361000000001,37.387531,Santa Clara,(408) 988-4281,https://www.7-eleven.com/locations/ca/santa-clara/3777-lafayette-st-14243?yext=14243,OPERATIONAL
240,Seafood City Supermarket,3065 McKee Rd,San Jose,-121.83668,37.374424,Santa Clara,(408) 240-4980,http://www.seafoodcity.com/,OPERATIONAL
241,99 Cents Only Store 224,260 E 10th St,Gilroy,-121.56282,37.001133,Santa Clara,(408) 848-4502,http://99only.com/store/Gilroy/,OPERATIONAL
242,Ernies Liquor,2808 S White Rd,San Jose,-121.79668000000001,37.324039,Santa Clara,(408) 274-4422,No website listed,OPERATIONAL
243,Target Store T-2088,533 Coleman Ave,San Jose,-121.90545,37.340714,Santa Clara,(408) 346-2022,https://www.target.com/sl/san-jose-college-park/2088,OPERATIONAL
244,MI RANCHO CARNICERIA,1383 Kooser Rd,San Jose,-121.88888999999999,37.246196999999995,Santa Clara,(408) 267-2399,No website listed,OPERATIONAL
245,Nob Hill 634,1250 Grant Rd,Mountain View,-122.0752,37.37775,Santa Clara,(650) 390-9222,https://www.raleys.com/stores/nob-hill-foods-grant-mountain-view-california/,OPERATIONAL
246,Target Store T-0324,1811 Hillsdale Ave,San Jose,-121.91773,37.263228999999995,Santa Clara,(408) 267-7900,https://www.target.com/sl/san-jose-west/324,OPERATIONAL
247,RITE AID 5975,16000 Monterey St,Morgan Hill,-121.6429,37.113049,Santa Clara,(408) 778-5184,https://www.riteaid.com/locations/ca/morgan-hill/16000-monterey-street.html,OPERATIONAL
248,7-Eleven 23879B,1496 N Milpitas Blvd,Milpitas,-121.9103,37.452343,Santa Clara,(408) 942-1711,https://www.7-eleven.com/locations/ca/milpitas/1496-n.-milpitas-blvd-23879?yext=23879,OPERATIONAL
249,EL RICO PAN BAKERY,231 Willow St,San Jose,-121.88287,37.318619,Santa Clara,(408) 298-6228,No website listed,OPERATIONAL
250,The Market At Edgewood,2170 W Bayshore Rd,East Palo Alto,-122.14575,37.462952,Santa Clara,(650) 665-7590,http://www.marketatedgewood.com/,OPERATIONAL
251,El Sol Market,705 N 13th St,San Jose,-121.88821000000002,37.355553,Santa Clara,(408) 287-8431,No website listed,OPERATIONAL
252,RITE AID 5886,2310 Homestead Rd,Los Altos,-122.06747,37.337677,Santa Clara,(408) 774-0134,https://www.riteaid.com/locations/ca/los-altos/2310-homestead-rd.html,OPERATIONAL
253,RITE AID 5967,20580 Homestead Rd,Cupertino,-122.03343999999998,37.337524,Santa Clara,(408) 253-2005,https://www.riteaid.com/locations/ca/cupertino/20572-homestead-road.html,OPERATIONAL
254,RITE AID 5988,1550 Hamilton Ave,San Jose,-121.91188999999999,37.294403,Santa Clara,(408) 264-8642,https://www.riteaid.com/locations/ca/san-jose/1550-hamilton-avenue.html,OPERATIONAL
255,RITE AID 5991,3055 McKee Rd,San Jose,-121.83698000000001,37.374214,Santa Clara,(408) 258-3311,https://www.riteaid.com/locations/ca/san-jose/1030-south-white-road.html,OPERATIONAL
256,RITE AID 5992,1030 S White Rd,San Jose,-121.82056000000001,37.3578,Santa Clara,(408) 258-3311,https://www.riteaid.com/locations/ca/san-jose/1030-south-white-road.html,OPERATIONAL
257,RITE AID 5993,1333 S Winchester Blvd,San Jose,-121.94998999999999,37.300133,Santa Clara,(408) 379-6570,https://www.riteaid.com/locations/ca/san-jose/1333-south-winchester-blvd.html,OPERATIONAL
258,Felipe's Market,1101 W El Camino Real,Sunnyvale,-122.0526,37.372906,Santa Clara,(408) 720-8111,http://www.felipesmarket.com/,OPERATIONAL
259,CHAVEZ SUPERMARKET,666 N Fair Oaks Ave,Sunnyvale,-122.01455,37.390240000000006,Santa Clara,(408) 736-3793,http://www.chavezsuper.com/,OPERATIONAL
260,Fairground Shell 42,2180 Monterey Hwy,San Jose,-121.8614,37.304001,Santa Clara,(408) 292-2746,https://find.shell.com/us/fuel/10007746-2180-monterey-hwy,OPERATIONAL
261,Queen Fresh Fruits,1111 Story Rd,San Jose,-121.85452,37.33234,Santa Clara,No formatted_phone_number listed,No website listed,OPERATIONAL
262,Market Day At Shires Memorial Center,180 N 4th St,San Jose,-121.88933,37.340237,Santa Clara,(408) 297-7476,https://covia.org/affordable-housing/affordable-communities/,OPERATIONAL
263,"Nmso, Inc. 68203",1365 Kooser Rd,San Jose,-121.88805,37.245979,Santa Clara,(408) 265-4579,No website listed,OPERATIONAL
264,Meridian Chevron 96336,900 Meridian Ave,San Jose,-121.91353000000001,37.310562,Santa Clara,(408) 297-7987,http://www.chevronwithtechron.com/findastation.aspx,OPERATIONAL
265,L&F FISH MARKET,1448 E Santa Clara St,San Jose,-121.86256000000002,37.349445,Santa Clara,(408) 998-4021,http://www.facebook.com/landffishmarket,OPERATIONAL
266,7-Eleven 14269A,350 N White Rd,San Jose,-121.83601999999999,37.375735999999996,Santa Clara,(408) 251-4729,https://www.7-eleven.com/locations/ca/san-jose/350-north-white-rd-14269?yext=14269,OPERATIONAL
267,WALGREENS 02081,1760 Story Rd,San Jose,-121.84165,37.340786,Santa Clara,(408) 251-9853,https://www.walgreens.com/locator/walgreens-1760+story+rd-san+jose-ca-95122/id=2081,OPERATIONAL
268,GREWAL FOOD & LIQUOR,1711 McLaughlin Ave,San Jose,-121.84651000000001,37.325378,Santa Clara,(408) 293-5744,No website listed,OPERATIONAL
269,Dollar Tree 2785,16975 Monterey St,Morgan Hill,-121.64986999999999,37.124863,Santa Clara,(408) 825-5503,https://www.dollartree.com/locations/ca/morgan-hill/2785/?utm_source=Google&utm_medium=Maps&utm_campaign=Google+Places,OPERATIONAL
270,SANTA FE FOODS,860 S White Rd,San Jose,-121.82172,37.359047,Santa Clara,(408) 258-2599,No website listed,OPERATIONAL
271,HILLSDALE MARKET & LIQUORS,3100 Monterey Hwy,San Jose,-121.84493,37.287483,Santa Clara,(408) 227-8841,No website listed,OPERATIONAL
272,Almaden Market,5965 Almaden Expy,San Jose,-121.87276999999999,37.235096,Santa Clara,(408) 997-7901,No website listed,OPERATIONAL
273,7 ELEVEN 16189 D,1201 Wildwood Ave,Sunnyvale,-121.99463999999999,37.392044,Santa Clara,(408) 739-5240,https://www.7-eleven.com/locations/ca/sunnyvale/1201-wildwood-ave-16189?yext=16189,OPERATIONAL
274,7-Eleven 14324G,1905 Latham St,Mountain View,-122.09608,37.39447,Santa Clara,(650) 965-3762,https://www.7-eleven.com/locations/ca/mountain-view/1905-latham-st-14324?yext=14324,OPERATIONAL
275,La Sonorense Bakery,163 Willow St,San Jose,-121.88158999999999,37.319317,Santa Clara,(408) 286-3767,No website listed,OPERATIONAL
276,Gavilan Market,8110 Westwood Dr,Gilroy,-121.5937,37.014469,Santa Clara,No formatted_phone_number listed,No website listed,OPERATIONAL
277,Southgate Liquors,445F Blossom Hill Rd,San Jose,-121.82999,37.251446,Santa Clara,(408) 225-4321,https://southgateliquorsdelivery.com/,OPERATIONAL
278,Trader Joe's 202,17035 Laurel Rd,Morgan Hill,-121.63821999999999,37.130856,Santa Clara,(408) 778-6409,https://locations.traderjoes.com/ca/morgan-hill/202/?utm_source=Google&utm_medium=Maps&utm_campaign=Google+Places,OPERATIONAL
279,Snehas Gifts And Wine,1175 E Homestead Rd,Sunnyvale,-121.99703000000001,37.337887,Santa Clara,(408) 320-1033,No website listed,OPERATIONAL
280,Whole Foods Market 10267,20955 Stevens Creek Blvd,Cupertino,-122.03974,37.322987,Santa Clara,(408) 257-7000,http://www.wholefoodsmarket.com/stores/cupertino,OPERATIONAL
281,Whole Foods Market 10155,4800 El Camino Real,Los Altos,-122.10996999999999,37.399204,Santa Clara,(650) 559-0300,http://www.wholefoodsmarket.com/stores/losaltos,OPERATIONAL
282,Delgadillos Produce & Nuts,1590 Berryessa Rd,San Jose,-121.87971,37.369175,Santa Clara,(408) 453-1110,http://www.sjfm.com/,OPERATIONAL
283,Target Store T-0323,20745 Stevens Creek Blvd,Cupertino,-122.03567,37.322998,Santa Clara,(408) 725-2651,https://www.target.com/sl/cupertino/323,OPERATIONAL
284,LAS PALMAS MERCADO Y CARNICERIA,1080 Saratoga Ave,San Jose,-121.97826,37.305824,Santa Clara,(408) 260-2025,https://www.laspalmasmercado.com/,OPERATIONAL
285,DOLLAR TREE 3203,150 N San Tomas Aquino Rd,Campbell,-121.97653000000001,37.288227,Santa Clara,(408) 963-2535,https://www.dollartree.com/locations/ca/campbell/3203/?utm_source=Google&utm_medium=Maps&utm_campaign=Google+Places,OPERATIONAL
286,Sidhu Market,801 Locust St,San Jose,-121.88663000000001,37.321090999999996,Santa Clara,(408) 297-1463,No website listed,OPERATIONAL
287,CVS Pharmacy 9498,1800 Saratoga Ave,San Jose,-121.99411,37.289722,Santa Clara,(408) 253-3352,https://www.cvs.com/store-locator/cvs-pharmacy-address/1800+Saratoga+Ave-San+Jose-CA-95129/storeid=9498?WT.mc_id=LS_GOOGLE_RX_9498,OPERATIONAL
288,7 ELEVEN 16889G,1591 Flickinger Ave,San Jose,-121.87893999999999,37.390716999999995,Santa Clara,(408) 258-7711,https://www.7-eleven.com/locations/ca/san-jose/1591-flickinger-ave-16889?yext=16889,OPERATIONAL
289,Target Store T-2252,1061 Cochrane Rd,Morgan Hill,-121.64971000000001,37.154881,Santa Clara,(408) 310-4050,https://www.target.com/sl/morgan-hill/2252,OPERATIONAL
290,San Antonio Market 8,202 S 22nd St,San Jose,-121.86643000000001,37.34288,Santa Clara,No formatted_phone_number listed,No website listed,OPERATIONAL
291,Walmart Neighborhood Market 4174,1450 Monterey Hwy,San Jose,-121.87145,37.316223,Santa Clara,(408) 454-4508,https://www.walmart.com/store/4174/san-jose-ca/details,OPERATIONAL
292,7 Eleven 14256C,1173 Mclaughlin Ave,San Jose,-121.85292,37.331863,Santa Clara,(408) 279-0243,https://www.7-eleven.com/locations/ca/san-jose/1173-mclaughlin-ave-14256?yext=14256,OPERATIONAL
293,6 To Late Monterey,2784 Monterey Road,San Jose,-121.85027,37.292671,Santa Clara,(408) 229-2555,No website listed,OPERATIONAL
294,Maldonado Produce Lot  218,1590 Berryessa Road,San Jose,-121.87958,37.36916,Santa Clara,No formatted_phone_number listed,No website listed,No business_status listed
295,PAL MARKET,2398 University Ave,East Palo Alto,-122.13942,37.471428,Santa Clara,(650) 321-4163,No website listed,OPERATIONAL
296,7 Eleven 2366 24271C,2800 Benton St,Santa Clara,-121.97811999999999,37.346539,Santa Clara,(408) 246-0517,https://www.7-eleven.com/locations/ca/santa-clara/2800-benton-st-24271?yext=24271,OPERATIONAL
297,QUIK & SAVE,5245 Roeder Rd,San Jose,-121.81001,37.261333,Santa Clara,No place found,No place found,No place found
298,TROPICANA FOODS,1630 Story Rd,San Jose,-121.84481000000001,37.338646000000004,Santa Clara,(408) 923-7833,https://m.facebook.com/tropicanafoods/,OPERATIONAL
299,Stop and Buy,1601 Tully Rd,San Jose,-121.82878999999998,37.320522,Santa Clara,(408) 259-9313,http://www.stopnbuysanjose.com/,OPERATIONAL
300,Manila Oriental Market,2812 S White Rd,San Jose,-121.79661999999999,37.323859999999996,Santa Clara,(408) 414-9000,No website listed,OPERATIONAL
301,ABES LIQUOR & MARKET,1939 Alum Rock Ave,San Jose,-121.85093,37.355057,Santa Clara,(408) 729-9329,No website listed,OPERATIONAL
302,Safeway 1879,551 N Calaveras Blvd,Milpitas,-121.89593,37.433167,Santa Clara,(408) 262-9850,https://local.safeway.com/safeway/ca/milpitas/555-e-calaveras-blvd.html?utm_source=G&utm_medium=Maps&utm_campaign=G+Places,OPERATIONAL
303,Shop N Go,29 S Jackson Ave,San Jose,-121.84301,37.357948,Santa Clara,No formatted_phone_number listed,No website listed,OPERATIONAL
304,Union Market,750 S Almaden Ave,San Jose,-121.88525,37.32304,Santa Clara,(408) 295-8590,No website listed,OPERATIONAL
305,7 Eleven 36090A,298 N Capitol Ave,San Jose,-121.84255,37.369842999999996,Santa Clara,(408) 937-1852,https://www.7-eleven.com/locations/ca/san-jose/298-n-capitol-36090?yext=36090,OPERATIONAL
306,Mexico Bakery Inc. 3,1560 Alum Rock Ave,San Jose,-121.85963000000001,37.350803000000006,Santa Clara,(408) 272-0410,https://mexico-bakery-bakery.business.site/,OPERATIONAL
307,7 Eleven 29243E,848 E Evelyn Ave,Sunnyvale,-122.01414,37.370564,Santa Clara,(408) 542-9370,https://www.7-eleven.com/locations/ca/sunnyvale/848-e-evelyn-ave-29243?yext=29243,OPERATIONAL
308,India Cash And Carry,1032 E El Camino Real,Sunnyvale,-122.00589,37.352092999999996,Santa Clara,(408) 735-7383,http://www.indiacashandcarry.com/,OPERATIONAL
309,Target Store T-2281,2161 Monterey Rd,San Jose,-121.86233,37.304543,Santa Clara,(408) 660-1703,https://www.target.com/sl/san-jose-central/2281,OPERATIONAL
310,Chevron 1505,1589 S Bascom Ave,Campbell,-121.93183,37.29475,Santa Clara,(408) 371-5191,https://www.chevronwithtechron.com/station,OPERATIONAL
311,Las Americas Bakery 2,7435 Monterey St,Gilroy,-121.56893000000001,37.007271,Santa Clara,(408) 848-5152,No website listed,OPERATIONAL
312,Shop & Save Market,365 Bird Ave,San Jose,-121.89988000000001,37.323982,Santa Clara,(408) 286-4211,No website listed,OPERATIONAL
313,7 Eleven 2367-14218a,3111 Payne Ave,San Jose,-121.9508,37.301579,Santa Clara,(408) 985-7379,https://www.7-eleven.com/locations/ca/san-jose/3111-payne-ave-14218?yext=14218,OPERATIONAL
314,Smart & Final 779,401 Jacklin Rd,Milpitas,-121.90223,37.446509999999996,Santa Clara,(408) 941-9642,http://locations.smartandfinal.com/ca/milpitas/779/?utm_source=Google&utm_medium=Maps&utm_campaign=Google+Places,OPERATIONAL
315,99 Ranch Market 72,1350 Grant Rd,Mountain View,-122.0752,37.377758,Santa Clara,(650) 966-8899,http://www.99ranch.com/,OPERATIONAL
316,Charlies Market,1441 E Bayshore Rd,East Palo Alto,-122.14483,37.463184000000005,Santa Clara,(650) 325-6868,No website listed,OPERATIONAL
317,7-Eleven 17733D,2105 Scott Blvd,Santa Clara,-121.95953,37.361382,Santa Clara,(408) 296-5809,https://www.7-eleven.com/locations/ca/santa-clara/2105-scott-blvd-17733?yext=17733,OPERATIONAL
318,7-ELEVEN 20521E,602 Tully Rd,San Jose,-121.84731000000001,37.308044,Santa Clara,(408) 286-9555,https://www.7-eleven.com/locations/ca/san-jose/602-tully-rd-20521?yext=20521,OPERATIONAL
319,Vineyard Chevron 1,15865 Monterey Rd,Morgan Hill,-121.64029,37.110706,Santa Clara,(408) 779-0191,https://www.chevronwithtechron.com/station/15865-Monterey-Road-Morgan-Hill-CA-95037-id207808,OPERATIONAL
320,Grocery Outlet Of Gilroy,333 E 10th St,Gilroy,-121.56178999999999,37.001488,Santa Clara,(408) 848-2700,https://groceryoutlet.com/circulars/storeid/184,OPERATIONAL
321,Whole Foods Market 10005,774 Emerson St,Palo Alto,-122.15948,37.442596,Santa Clara,(650) 326-8676,http://www.wholefoodsmarket.com/stores/paloalto,OPERATIONAL
322,Creekside Farmers' Market,10455 Miller Ave,Cupertino,-122.01336,37.316494,Santa Clara,(925) 825-9090,http://pcfma.org/,OPERATIONAL
323,Trader Joes 232,7250 Bollinger Rd,San Jose,-122.03138999999999,37.312183000000005,Santa Clara,(408) 873-7384,https://locations.traderjoes.com/ca/san-jose/232/?utm_source=Google&utm_medium=Maps&utm_campaign=Google+Places,OPERATIONAL
324,H Mart De Anza. Llc,1179 S de Anza Blvd,San Jose,-122.03238,37.303894,Santa Clara,(408) 418-1601,https://www.hmart.com/,OPERATIONAL
325,Dollar Tree 2083,5540 Snell Ave,San Jose,-121.83073,37.253262,Santa Clara,(408) 826-3255,https://www.dollartree.com/locations/ca/san-jose/2083/?utm_source=Google&utm_medium=Maps&utm_campaign=Google+Places,OPERATIONAL
326,Tully Market,1709 Tully Rd,San Jose,-121.82506000000001,37.323093,Santa Clara,(408) 929-1786,https://www.pointy.com/shops/usa/ca/san-jose/tully-market,OPERATIONAL
327,Tej Papa Murphy Inc CA005,1375 Blossom Hill Rd,San Jose,-121.88917,37.2439,Santa Clara,(408) 264-6464,https://order.papamurphys.com/menu/papa-murphys-blossom?utm_source=organic&utm_medium=gmb&utm_campaign=yext,OPERATIONAL
328,T & L Market,451 E Julian St,San Jose,-121.88468,37.344955,Santa Clara,(408) 295-3738,No website listed,OPERATIONAL
329,Foothill Produce,2310 Homestead Rd,Los Altos,-122.06747,37.337677,Santa Clara,(408) 735-7775,https://www.facebook.com/foothillproducelosalto/,OPERATIONAL
330,WALGREENS 5219,5 S 1st St,San Jose,-121.8905,37.33596,Santa Clara,(408) 287-0600,https://www.walgreens.com/locator/walgreens-780+e+santa+clara+st-san+jose-ca-95112/id=4372,CLOSED_PERMANENTLY
331,WALGREENS 840,1334 Saratoga Ave,San Jose,-121.98203999999998,37.300381,Santa Clara,(408) 249-7333,https://www.walgreens.com/locator/walgreens-1334+saratoga+ave-san+jose-ca-95129/id=840,OPERATIONAL
332,Walgreens 5454,1661 McKee Rd,San Jose,-121.8614,37.357665999999995,Santa Clara,(408) 347-1404,https://www.walgreens.com/locator/walgreens-1661+mckee+rd-san+jose-ca-95116/id=5454,OPERATIONAL
333,Mckee Seafood Supermarket,2331 Mckee Rd,San Jose,-121.84916000000001,37.366089,Santa Clara,(408) 251-5566,No website listed,OPERATIONAL
334,Kwikee Mart,2044 McKee Rd,San Jose,-121.85538000000001,37.361534000000006,Santa Clara,(408) 259-4935,No website listed,OPERATIONAL
335,CVS Pharmacy 9684,2630 W El Camino Real,Mountain View,-122.11464,37.401939,Santa Clara,(650) 941-8430,https://www.cvs.com/store-locator/cvs-pharmacy-address/2630+West+El+Camino+Real-Mountain+View-CA-94040/storeid=9684?WT.mc_id=LS_GOOGLE_FS_9684,OPERATIONAL
336,CVS Pharmacy 9810,1685 Tully Rd,San Jose,-121.82625,37.322285,Santa Clara,(408) 923-6616,https://www.cvs.com/store-locator/cvs-pharmacy-address/1685+Tully+Road-San+Jose-CA-95122/storeid=9810?WT.mc_id=LS_GOOGLE_FS_9810,OPERATIONAL
337,SAFEWAY  1245,15543 Union Ave,Los Gatos,-121.93128999999999,37.242519,Santa Clara,(408) 559-5752,https://local.pharmacy.safeway.com/ca/los-gatos/15549-union-ave.html,OPERATIONAL
338,Lucky 761,200 El Paseo de Saratoga,San Jose,-121.99387,37.288292,Santa Clara,(408) 364-8800,http://luckysupermarkets.com/,OPERATIONAL
339,Emit Mini Market,1492 Almaden Rd,San Jose,-121.87836000000001,37.312466,Santa Clara,(408) 380-4869,No website listed,OPERATIONAL
340,LION FOOD CENTER,1838 N Milpitas Blvd,Milpitas,-121.91129,37.456821000000005,Santa Clara,(408) 946-0888,http://www.lionsupermarket.com/,OPERATIONAL
341,HANKOOK SUPER MARKET,1092 E El Camino Real,Sunnyvale,-122.00225,37.352142,Santa Clara,(408) 244-0871,http://www.hankooksupermarket.com/index.htm,OPERATIONAL
342,Grocery Outlet Of Santa Teresa 410,7076 Santa Teresa Blvd,San Jose,-121.7748,37.225887,Santa Clara,(669) 234-3465,https://groceryoutlet.com/circulars/storeid/410,OPERATIONAL
343,Trader Joes 0212,635 Coleman Ave,San Jose,-121.90915,37.341274,Santa Clara,(408) 298-9731,https://locations.traderjoes.com/ca/san-jose/212/?utm_source=Google&utm_medium=Maps&utm_campaign=Google+Places,OPERATIONAL
344,Patel Brothers of Santa Clara,2039 El Camino Real,Santa Clara,-121.96049,37.352497,Santa Clara,(408) 261-3555,http://www.patelbros.com/,OPERATIONAL
345,M&m Liquor,7901 Westwood Dr,Gilroy,-121.59383999999999,37.012474,Santa Clara,(408) 847-8573,No website listed,OPERATIONAL
346,MARINA FOOD #2,10122 Bandley Dr,Cupertino,-122.03457,37.32431,Santa Clara,(408) 255-2648,No website listed,OPERATIONAL
347,Mediterranean Food Market,398 Saratoga Ave,San Jose,-121.97102,37.321715999999995,Santa Clara,(408) 241-3700,No website listed,OPERATIONAL
348,SAFEWAY 1108,1750 Miramonte Ave,Mountain View,-122.08711000000001,37.372292,Santa Clara,(650) 903-5850,https://local.safeway.com/safeway/ca/mountain-view/1750-miramonte-ave.html?utm_source=G&utm_medium=Maps&utm_campaign=G+Places,OPERATIONAL
349,CVS Pharmacy 9700,576 E El Camino Real,Sunnyvale,-122.02643,37.362815999999995,Santa Clara,(408) 739-4620,https://www.cvs.com/store-locator/cvs-pharmacy-address/576+East+El+Camino+Real-Sunnyvale-CA-94087/storeid=9700?WT.mc_id=LS_GOOGLE_FS_9700,OPERATIONAL
350,CVS Pharmacy 9944,3081 Stevens Creek Blvd,Santa Clara,-121.94955,37.323395,Santa Clara,(408) 241-5141,https://www.cvs.com/store-locator/cvs-pharmacy-address/3081+Stevens+Creek+Boulevard-Santa+Clara-CA-95050/storeid=9944?WT.mc_id=LS_GOOGLE_FS_9944,OPERATIONAL
351,CVS Pharmacy 9987,1798 Miramonte Ave,Mountain View,-122.08711000000001,37.371601,Santa Clara,(650) 969-6297,https://www.cvs.com/store-locator/cvs-pharmacy-address/1798+Miramonte+Avenue-Mountain+View-CA-94040/storeid=9987?WT.mc_id=LS_GOOGLE_FS_9987,OPERATIONAL
352,Lion Market,1031 E Capitol Expressway,San Jose,-121.82321,37.299155999999996,Santa Clara,(408) 226-9888,http://www.lionsupermarket.com/,OPERATIONAL
353,BARAKA HALAL MARKET,952 W El Camino Real,Sunnyvale,-122.04693999999999,37.371414,Santa Clara,(408) 830-0016,https://barakahalalmarket.business.site/,OPERATIONAL
354,Grocery Outlet Of Santa Clara,3520 Homestead Rd,Santa Clara,-121.99366,37.337803,Santa Clara,(408) 249-9046,https://groceryoutlet.com/circulars/storeid/238,OPERATIONAL
355,EZ Market Inc 2,2644 Cropley Ave,San Jose,-121.88123,37.403725,Santa Clara,(408) 586-8819,No website listed,OPERATIONAL
356,Paul's Market,412 E Empire St,San Jose,-121.88828000000001,37.348927,Santa Clara,(408) 380-4196,https://www.uhaul.com/Locations/Truck-Rentals-near-San-Jose-CA-95112/040763/,OPERATIONAL
357,Lucky 759,129 Bernal Rd,San Jose,-121.7742,37.229923,Santa Clara,(408) 578-6268,"https://www.luckysupermarkets.com/stores#/?coordinates=37.232904100000006,-121.77689999999996&zoom=4",OPERATIONAL
358,Dollar Tree 1270,5536 Monterey Hwy,San Jose,-121.79869,37.253624,Santa Clara,(408) 826-0189,https://www.dollartree.com/locations/ca/san-jose/1270/?utm_source=Google&utm_medium=Maps&utm_campaign=Google+Places,OPERATIONAL
359,Safeway 3403,580 N Rengstorff Ave,Mountain View,-122.09288000000001,37.410957,Santa Clara,(650) 316-6321,https://local.safeway.com/safeway/ca/mountain-view/580-n-rengstorff-ave.html,OPERATIONAL
360,Bonfare Market 18,1233 Jacklin Rd,Milpitas,-121.88817,37.447659,Santa Clara,(408) 262-6151,http://www.bonfaremarkets.com/,OPERATIONAL
361,Dollar Tree 3853,916 Story Rd,San Jose,-121.85673999999999,37.330517,Santa Clara,(669) 212-4077,https://www.dollartree.com/locations/ca/san-jose/3853/?utm_source=Google&utm_medium=Maps&utm_campaign=Google+Places,OPERATIONAL
362,Rotten Robbie 32,1061 Lincoln Ave,San Jose,-121.90231000000001,37.310154,Santa Clara,(408) 292-0300,http://www.rottenrobbie.com/,OPERATIONAL
363,Dollar Tree 3725,588 E El Camino Real,Sunnyvale,-122.02600000000001,37.362419,Santa Clara,(408) 701-6001,https://www.dollartree.com/locations/ca/sunnyvale/3725/?utm_source=Google&utm_medium=Maps&utm_campaign=Google+Places,OPERATIONAL
364,DOLLAR TREE 1236,1350 S PARK VICTORIA,MILPITAS,-121.87513999999999,37.416579999999996,Santa Clara,(408) 964-5442,https://www.dollartree.com/locations/ca/milipitas/1236/?utm_source=Google&utm_medium=Maps&utm_campaign=Google+Places,OPERATIONAL
365,Lucky 758,565 W Capitol Expy,San Jose,-121.85356000000002,37.274677000000004,Santa Clara,(408) 445-6900,No website listed,OPERATIONAL
366,Pars Kosher Market,3978 S Bascom Ave,San Jose,-121.94783999999999,37.258590999999996,Santa Clara,(408) 340-5443,No website listed,OPERATIONAL
367,SHAN MARKET,1250 E Julian St,San Jose,-121.8699,37.351836999999996,Santa Clara,(408) 297-3355,No website listed,OPERATIONAL
368,7-Eleven 14241G,3565 Benton St,Santa Clara,-121.99435,37.345387,Santa Clara,(408) 984-8848,https://www.7-eleven.com/locations/ca/santa-clara/3565-benton-st-14241?yext=14241,OPERATIONAL
369,CVS Pharmacy 9856,1165 W El Camino Real,Sunnyvale,-122.05488000000001,37.373591999999995,Santa Clara,(408) 732-1688,https://www.cvs.com/store-locator/cvs-pharmacy-address/1165+West+El+Camino+Real-Sunnyvale-CA-94087/storeid=9856?WT.mc_id=LS_GOOGLE_FS_9856,OPERATIONAL
370,CVS Pharmacy 9995,1405 Foxworthy Ave,San Jose,-121.89098,37.275211,Santa Clara,(408) 264-0371,https://www.cvs.com/store-locator/cvs-pharmacy-address/1405+Foxworthy+Avenue-San+Jose-CA-95118/storeid=9995?WT.mc_id=LS_GOOGLE_FS_9995,OPERATIONAL
371,CVS Pharmacy 9793,2700 Homestead Rd,Santa Clara,-121.97421999999999,37.339115,Santa Clara,(408) 247-8700,https://www.cvs.com/store-locator/cvs-pharmacy-address/2700+Homestead+Road-Santa+Clara-CA-95051/storeid=9793?WT.mc_id=LS_GOOGLE_FS_9793,OPERATIONAL
372,Rotten Robbie 3,370 E Hamilton Ave,Campbell,-121.94323,37.294243,Santa Clara,(408) 378-3611,http://www.rottenrobbie.com/,OPERATIONAL
373,Big Lots 4261,1832 Hillsdale Ave,San Jose,-121.91951999999999,37.262314,Santa Clara,(408) 267-7283,https://local.biglots.com/ca/san-jose/4261?utm_source=google&utm_medium=distrib&utm_campaign=google-distrib,OPERATIONAL
374,Dollar Tree 3764,1178 N Capitol Ave,San Jose,-121.86175,37.387932,Santa Clara,(408) 678-3453,https://www.dollartree.com/locations/ca/san-jose/3764/?utm_source=Google&utm_medium=Maps&utm_campaign=Google+Places,OPERATIONAL
375,Dollar Tree 3823,14406 Union Ave,San Jose,-121.93128999999999,37.258701,Santa Clara,(408) 963-2068,https://www.dollartree.com/locations/ca/san-jose/3823/?utm_source=Google&utm_medium=Maps&utm_campaign=Google+Places,OPERATIONAL
376,Speedway 1493,921 W Hamilton Ave,Campbell,-121.96566999999999,37.294266,Santa Clara,(408) 871-1392,http://www.speedway.com/,OPERATIONAL
377,CVS Pharmacy 9161,45 N Milpitas Blvd,Milpitas,-121.9006,37.434185,Santa Clara,(408) 946-6424,https://www.cvs.com/store-locator/cvs-pharmacy-address/45+North+Milpitas+Boulevard-Milpitas-CA-95035/storeid=9161?WT.mc_id=LS_GOOGLE_FS_9161,OPERATIONAL
378,Gbg Llc,3777 Williams Rd,San Jose,-121.96713000000001,37.308529,Santa Clara,(408) 246-5335,No website listed,OPERATIONAL
379,Dollar Tree 3185,5041 Almaden Expy,San Jose,-121.87625,37.257713,Santa Clara,(408) 826-0427,https://www.dollartree.com/locations/ca/san-jose/3185/?utm_source=Google&utm_medium=Maps&utm_campaign=Google+Places,OPERATIONAL
380,Dollar Tree 2274,1260A 1st St,Gilroy,-121.59481000000001,37.013481,Santa Clara,(408) 427-0035,https://www.dollartree.com/locations/ca/gilroy/2274/?utm_source=Google&utm_medium=Maps&utm_campaign=Google+Places,OPERATIONAL
381,Charlee's Liquor Market,2905 S Bascom Ave,Campbell,-121.93862,37.269141999999995,Santa Clara,(408) 371-6790,No website listed,OPERATIONAL
382,CVS Pharmacy 9229,3220 S White Rd,San Jose,-121.79299999999999,37.316359999999996,Santa Clara,(408) 238-9603,https://www.cvs.com/store-locator/cvs-pharmacy-address/3220+South+White+Road-San+Jose-CA-95148/storeid=9229?WT.mc_id=LS_GOOGLE_FS_9229,OPERATIONAL
383,CVS Pharmacy 9337,6910 Almaden Expy,San Jose,-121.84884,37.21217,Santa Clara,(408) 927-7310,https://www.cvs.com/store-locator/cvs-pharmacy-address/6910+Almaden+Expy-San+Jose-CA-95120/storeid=9337?WT.mc_id=LS_GOOGLE_FS_9337,OPERATIONAL
384,7-Eleven 15766D,90 Stern Ave,Cupertino,-122.00334,37.319824,Santa Clara,(408) 255-6711,https://www.7-eleven.com/locations/ca/cupertino/90-stern-ave-15766?yext=15766,OPERATIONAL
385,7-Eleven 14211 B,280 E Main St,Los Gatos,-121.97509,37.221053999999995,Santa Clara,(408) 354-8280,https://www.7-eleven.com/locations/ca/los-gatos/280-east-main-st-14211?yext=14211,OPERATIONAL
386,7-Eleven 14257 B,2032 Story Rd,San Jose,-121.83693999999998,37.343967,Santa Clara,(408) 251-0555,https://www.7-eleven.com/locations/ca/san-jose/2032-story-rd-14257?yext=14257,OPERATIONAL
387,7-Eleven 14306 D,295 W Main Ave,Morgan Hill,-121.65983999999999,37.127407,Santa Clara,(408) 779-4077,https://www.7-eleven.com/locations/ca/morgan-hill/295-west-main-ave-14306?yext=14306,OPERATIONAL
388,CVS Pharmacy 7774,850 California St,Mountain View,-122.0813,37.391697,Santa Clara,(650) 691-4004,https://www.cvs.com/store-locator/cvs-pharmacy-address/850+California+Street-Mountain+View-CA-94041/storeid=7774?WT.mc_id=LS_GOOGLE_FS_7774,OPERATIONAL
389,"Country Time Market, LLC",2200 University Ave,East Palo Alto,-122.1415,37.465874,Santa Clara,(650) 322-6919,No website listed,OPERATIONAL
390,Gp Bottle Llc,2364 Pruneridge Ave,Santa Clara,-121.96256000000001,37.329914,Santa Clara,(408) 260-1235,https://gp-bottle-shop.business.site/?utm_source=gmb&utm_medium=referral,OPERATIONAL
391,Yawh Mini Mart,367 Meridian Ave,San Jose,-121.91378,37.32177,Santa Clara,(408) 298-3743,No website listed,OPERATIONAL
392,Sprouts Farmers Market 283,2060 El Camino Real,Santa Clara,-121.96143000000001,37.352283,Santa Clara,(408) 780-7248,https://sprouts.com/store/ca/santa-clara/santa-clara,OPERATIONAL
393,One Stop Liquor,801 Lincoln Ave,San Jose,-121.90597,37.314823,Santa Clara,(408) 293-4156,http://www.sjliquor.com/,OPERATIONAL
394,Barron Park Market,3876 El Camino Real,Palo Alto,-122.13058999999998,37.416985,Santa Clara,(650) 493-2700,http://www.barronparkflorist.com/,OPERATIONAL
395,Gbja Llc,2561 Newhall St,Santa Clara,-121.95105,37.337505,Santa Clara,No formatted_phone_number listed,No website listed,No business_status listed
396,CVS Pharmacy 3029,1097 Leigh Ave,San Jose,-121.92249,37.303959000000006,Santa Clara,(408) 294-2240,https://www.cvs.com/store-locator/cvs-pharmacy-address/1097+Leigh+Avenue-San+Jose-CA-95126/storeid=3029?WT.mc_id=LS_GOOGLE_FS_3029,OPERATIONAL
397,Target Store T-1426,450 N Capitol Ave,San Jose,-121.84623,37.373531,Santa Clara,(408) 254-8931,https://www.target.com/sl/san-jose-capitol/1426,OPERATIONAL
398,CVS Pharmacy 9895,100 N San Tomas Aquino Rd,Campbell,-121.97658999999999,37.28751,Santa Clara,No place found,No place found,No place found
399,CVS Pharmacy 9808,470 Blossom Hill Rd,San Jose,-121.8337,37.251152000000005,Santa Clara,(408) 578-4900,https://www.cvs.com/store-locator/cvs-pharmacy-address/470+Blossom+Hill+Road-San+Jose-CA-95123/storeid=9808?WT.mc_id=LS_GOOGLE_FS_9808,OPERATIONAL
400,99 RANCH MARKET 66,338 Barber Ln,Milpitas,-121.91776999999999,37.421585,Santa Clara,(408) 946-8899,http://www.99ranch.com/,OPERATIONAL
401,WALGREENS 3344,4170 El Camino Real,Palo Alto,-122.12459,37.411781,Santa Clara,(650) 858-2007,https://www.walgreens.com/locator/walgreens-4170+el+camino+real-palo+alto-ca-94306/id=3344,OPERATIONAL
402,Walmart Store 2280,600 Showers Dr,Mountain View,-122.10812,37.401127,Santa Clara,(650) 917-0796,https://www.walmart.com/store/2280/mountain-view-ca/details,OPERATIONAL
403,7-ELEVEN #16799 A,162 W 10th St,Gilroy,-121.5673,36.999863,Santa Clara,(408) 842-8648,https://www.7-eleven.com/locations/ca/gilroy/162-10th-st-16799?yext=16799,OPERATIONAL
404,7-Eleven 14290D,1421 Branham Ln,San Jose,-121.89112,37.259026,Santa Clara,(408) 265-4112,https://www.7-eleven.com/locations/ca/san-jose/1421-branham-ln-14290?yext=14290,OPERATIONAL
405,SETAREH MARKET,4644 Meridian Ave,San Jose,-121.89867,37.255917,Santa Clara,(408) 979-0634,No website listed,OPERATIONAL
406,MAXIM MARKET,1930 Aborn Rd,San Jose,-121.81125,37.310844,Santa Clara,(408) 223-8988,No website listed,OPERATIONAL
407,R & D Liquor,662 Willow St,San Jose,-121.89273,37.312816999999995,Santa Clara,(408) 287-1271,No website listed,OPERATIONAL
408,Big Lots 4271,1581 W Campbell Ave,Campbell,-121.97782,37.286057,Santa Clara,(408) 379-1857,https://local.biglots.com/ca/campbell/4271?utm_source=google&utm_medium=distrib&utm_campaign=google-distrib,OPERATIONAL
409,7-Eleven 14246 G,497 Kiely Blvd,San Jose,-121.97081000000001,37.320122,Santa Clara,(408) 985-9294,https://www.7-eleven.com/locations/ca/san-jose/497-kiely-blvd-14246?yext=14246,OPERATIONAL
410,La Estrellita Market,2381 University Ave,East Palo Alto,-122.13991999999999,37.470959,Santa Clara,(650) 328-0799,No website listed,OPERATIONAL
411,Big Lots 4282,200 Serra Way,Milpitas,-121.90926999999999,37.427605,Santa Clara,(408) 946-9605,https://local.biglots.com/ca/milpitas/4282?utm_source=google&utm_medium=distrib&utm_campaign=google-distrib,OPERATIONAL
412,Dollar Tree 6337,7128 Santa Teresa Blvd,San Jose,-121.77399,37.225516999999996,Santa Clara,(408) 960-7379,https://www.dollartree.com/locations/ca/san-jose/6337/?utm_source=Google&utm_medium=Maps&utm_campaign=Google+Places,OPERATIONAL
413,Mini Mart & Jr. Deli,2604 Alum Rock Ave,San Jose,-121.83783999999999,37.361031,Santa Clara,(408) 258-6599,No website listed,OPERATIONAL
414,7-Eleven 22795 B,2805 S White Rd,San Jose,-121.79703,37.324787,Santa Clara,(408) 238-2400,https://www.7-eleven.com/locations/ca/san-jose/2805-s.-white-road-22795?yext=22795,OPERATIONAL
415,7-Eleven 14221 D,657 N Santa Cruz Ave,Los Gatos,-121.97775,37.235737,Santa Clara,(408) 354-5733,https://www.7-eleven.com/locations/ca/los-gatos/657-n.-santa-cruz-ave-14221?yext=14221,OPERATIONAL
416,K D Liquor,8401 Church,Gilroy,-121.5773,37.019698999999996,Santa Clara,(408) 767-2220,No website listed,OPERATIONAL
417,Save Food & Liquor,1191 El Camino Real,Santa Clara,-121.94939,37.353756,Santa Clara,(408) 296-6622,No website listed,OPERATIONAL
418,SAFEWAY  997,1663 Branham Ln,San Jose,-121.90733999999999,37.251987,Santa Clara,(408) 267-0550,https://local.safeway.com/safeway/ca/san-jose/1663-branham-ln.html?utm_source=G&utm_medium=Maps&utm_campaign=G+Places,OPERATIONAL
419,CVS Pharmacy 9198,1675 Hollenbeck Ave,Sunnyvale,-122.04146000000001,37.338383,Santa Clara,(408) 735-7922,https://www.cvs.com/store-locator/cvs-pharmacy-address/1675+Hollenbeck+Avenue-Sunnyvale-CA-94087/storeid=9198?WT.mc_id=LS_GOOGLE_RX_9198,OPERATIONAL
420,7-Eleven 14298D,2223 S Bascom Ave,Campbell,-121.93178999999999,37.282951000000004,Santa Clara,(408) 377-7060,https://www.7-eleven.com/locations/ca/campbell/2223-s.-bascom-ave-14298?yext=14298,OPERATIONAL
421,CVS Pharmacy 9897,3074 Story Rd,San Jose,-121.81953,37.35585,Santa Clara,(408) 259-5600,https://www.cvs.com/store-locator/cvs-pharmacy-address/3074+Story+Road-San+Jose-CA-95127/storeid=9897?WT.mc_id=LS_GOOGLE_FS_9897,OPERATIONAL
422,Princeton Plaza Cfm,1375 Blossom Hill Road,San Jose,-121.88917,37.2439,Santa Clara,(408) 248-6600,http://www.pancal.com/property/princeton-plaza/,CLOSED_TEMPORARILY
423,CVS Pharmacy 9346,1041 El Monte Ave,Mountain View,-122.09583,37.390724,Santa Clara,(650) 961-5560,https://www.cvs.com/store-locator/cvs-pharmacy-address/1041+El+Monte+Avenue-Mountain+View-CA-94040/storeid=9346?WT.mc_id=LS_GOOGLE_FS_9346,OPERATIONAL
424,CVS Pharmacy 9498,5285 PROSPECT RD,SAN JOSE,-121.99478,37.292213000000004,Santa Clara,(408) 253-3352,https://www.cvs.com/store-locator/cvs-pharmacy-address/1800+Saratoga+Ave-San+Jose-CA-95129/storeid=9498?WT.mc_id=LS_GOOGLE_RX_9498,OPERATIONAL
425,CVS Pharmacy 9805,1720 S Bascom Ave,Campbell,-121.93153999999998,37.292259,Santa Clara,(408) 371-7191,https://www.cvs.com/store-locator/cvs-pharmacy-address/1720+South+Bascom+Avenue-Campbell-CA-95008/storeid=9805?WT.mc_id=LS_GOOGLE_FS_9805,OPERATIONAL
426,Lucky 7 Supermarket,1625 Mckee Rd,San Jose,-121.86308999999999,37.356559999999995,Santa Clara,(408) 251-0354,http://www.lucky7super.com/,OPERATIONAL
427,CVS Pharmacy 9534,4850 San Felipe Rd,San Jose,-121.77163,37.299831,Santa Clara,(408) 532-2952,https://www.cvs.com/store-locator/cvs-pharmacy-address/4850+San+Felipe+Road-San+Jose-CA-95135/storeid=9534?WT.mc_id=LS_GOOGLE_RX_9534,OPERATIONAL
428,Carniceria El Corral,259 E Maude Ave,Sunnyvale,-122.02403000000001,37.387577,Santa Clara,No formatted_phone_number listed,No website listed,OPERATIONAL
429,Walmart SuperCenter 5766,170 Cochrane Plz,Morgan Hill,-121.65503999999999,37.150887,Santa Clara,(408) 779-8172,https://www.walmart.com/store/5766/morgan-hill-ca/details,OPERATIONAL
430,7-Eleven 14230D,1412 Saratoga Ave,San Jose,-121.98818999999999,37.294918,Santa Clara,(408) 379-9097,https://www.7-eleven.com/locations/ca/san-jose/1412-saratoga-ave-14230?yext=14230,OPERATIONAL
431,CVS Pharmacy 9921,2069 Camden Ave,San Jose,-121.93485,37.262108000000005,Santa Clara,(408) 559-1450,https://www.cvs.com/store-locator/cvs-pharmacy-address/2069+Camden+Avenue-San+Jose-CA-95124/storeid=9921?WT.mc_id=LS_GOOGLE_RX_9921,OPERATIONAL
432,CVS Pharmacy 3935,855 El Camino Real,Palo Alto,-122.16116000000001,37.438381,Santa Clara,(650) 322-2707,https://www.cvs.com/store-locator/cvs-pharmacy-address/855+El+Camino+Real-Palo+Alto-CA-94301/storeid=3935?WT.mc_id=LS_GOOGLE_FS_3935,OPERATIONAL
433,CVS Pharmacy 2294,821 The Alameda,San Jose,-121.90661000000001,37.331779,Santa Clara,(408) 291-4553,https://www.cvs.com/store-locator/cvs-pharmacy-address/821+The+Alameda-San+Jose-CA-95126/storeid=2294?WT.mc_id=LS_GOOGLE_FS_2294,OPERATIONAL
434,CVS Pharmacy 9559,1285 Lincoln Ave,San Jose,-121.89867,37.30508,Santa Clara,(408) 280-6018,https://www.cvs.com/store-locator/cvs-pharmacy-address/1285+Lincoln+Avenue-San+Jose-CA-95125/storeid=9559?WT.mc_id=LS_GOOGLE_FS_9559,OPERATIONAL
435,7-eleven 17195,1590 Franklin St,Santa Clara,-121.95132,37.347332,Santa Clara,(408) 984-7928,https://www.7-eleven.com/locations/ca/santa-clara/1590-franklin-st-17195?yext=17195,OPERATIONAL
436,7-Eleven 14301E,691 1st St,Gilroy,-121.58146,37.013458,Santa Clara,(408) 842-3201,https://www.7-eleven.com/locations/ca/gilroy/691-first-st-14301?yext=14301,OPERATIONAL
437,CVS Pharmacy 9257,5170 Moorpark Ave,San Jose,-121.99433,37.309471,Santa Clara,(408) 257-9918,https://www.cvs.com/store-locator/cvs-pharmacy-address/5170+Moorpark+Avenue-San+Jose-CA-95129/storeid=9257?WT.mc_id=LS_GOOGLE_FS_9257,OPERATIONAL
438,CVS Pharmacy 9896,4550 Meridian Ave,San Jose,-121.89925,37.256679999999996,Santa Clara,(408) 267-1472,https://www.cvs.com/store-locator/cvs-pharmacy-address/4550+Meridian+Avenue-San+Jose-CA-95124/storeid=9896?WT.mc_id=LS_GOOGLE_FS_9896,OPERATIONAL
439,Cambrian Park Plaza Cfm,14900 Camden Ave,San Jose,-121.93043999999999,37.26162,Santa Clara,(916) 727-1005,http://www.cambrianparkplazashoppingcenter.com/,CLOSED_TEMPORARILY
440,CVS Pharmacy 9342,16995 Walnut Grove Dr,Morgan Hill,-121.63778,37.129234000000004,Santa Clara,(408) 779-6981,https://www.cvs.com/store-locator/cvs-pharmacy-address/16995+Walnut+Grove+Drive-Morgan+Hill-CA-95037/storeid=9342?WT.mc_id=LS_GOOGLE_FS_9342,OPERATIONAL
441,Target Store T-1427,1600 Saratoga Ave,San Jose,-121.99089,37.292598999999996,Santa Clara,(408) 871-7984,https://www.target.com/sl/san-jose-westgate/1427,OPERATIONAL
442,Safeway 2934,100 S 2nd St,San Jose,-121.88805,37.334831,Santa Clara,(408) 292-4010,http://local.safeway.com/ca/san-jose-2934.html?utm_source=G&utm_medium=Maps&utm_campaign=G+Places,CLOSED_PERMANENTLY
443,CVS Pharmacy 9834,12940 Saratoga Sunnyvale Rd,Saratoga,-122.03225,37.280663,Santa Clara,(408) 867-6822,https://www.cvs.com/store-locator/cvs-pharmacy-address/12940+Saratoga+Sunnyvale+Road-Saratoga-CA-95070/storeid=9834?WT.mc_id=LS_GOOGLE_FS_9834,OPERATIONAL
444,7 Eleven 14247D,262 W Sunnyoaks Ave,Campbell,-121.95485,37.272182,Santa Clara,(408) 376-0773,https://www.7-eleven.com/locations/ca/campbell/262-w.-sunnyoaks-ave-14247?yext=14247,OPERATIONAL
445,7-Eleven 33660A,1380 Pear Ave,Mountain View,-122.07726000000001,37.415554,Santa Clara,(650) 964-7259,https://www.7-eleven.com/locations/ca/mountain-view/1380-pear-avenue-33660?yext=33660,OPERATIONAL
446,CVS Pharmacy 9982,750 Blossom Hill Rd,Los Gatos,-121.96141999999999,37.235374,Santa Clara,(408) 356-3464,https://www.cvs.com/store-locator/cvs-pharmacy-address/750+Blossom+Hill+Road-Los+Gatos-CA-95032/storeid=9982?WT.mc_id=LS_GOOGLE_FS_9982,OPERATIONAL
447,CVS Pharmacy 9894,10455 S de Anza Blvd,Cupertino,-122.03245,37.316425,Santa Clara,(408) 996-1911,https://www.cvs.com/store-locator/cvs-pharmacy-address/10455+South+De+Anza+Boulevard-Cupertino-CA-95014/storeid=9894?WT.mc_id=LS_GOOGLE_FS_9894,OPERATIONAL
448,99 Cents Only Stores 270,1915 W San Carlos St,San Jose,-121.92929,37.323448,Santa Clara,(408) 971-1501,http://99only.com/store/San-JoseW.-San-Carlos/,OPERATIONAL
449,Mi Rancho Market,494 Auzerais Ave,San Jose,-121.89703,37.324515999999996,Santa Clara,(408) 295-1786,http://miranchosupermarket.com/,OPERATIONAL
450,Sungarden Chevron 5862,1418 Monterey Hwy,San Jose,-121.87345,37.316078000000005,Santa Clara,(408) 292-6250,http://www.chevronwithtechron.com/findastation.aspx,OPERATIONAL
451,"H Mart San Jose, Llc",1710 Oakland Rd,San Jose,-121.8959,37.383057,Santa Clara,(408) 599-5440,http://www.hmart.com/,OPERATIONAL
452,Oakmont Produce Market #2,810 W Hamilton Ave,Campbell,-121.96359,37.294140000000006,Santa Clara,(408) 866-6555,http://www.oakmontproduce.com/,OPERATIONAL
453,Walgreens 06585,1570 W Campbell Ave,Campbell,-121.97774,37.286003,Santa Clara,(408) 374-3038,https://www.walgreens.com/locator/walgreens-1570+w+campbell+ave-campbell-ca-95008/id=6585,OPERATIONAL
454,Walgreens 07079,1615 Meridian Ave,San Jose,-121.91358000000001,37.29385,Santa Clara,(408) 978-5393,https://www.walgreens.com/locator/walgreens-1615+meridian+ave-san+jose-ca-95125/id=7079,OPERATIONAL
455,Walgreens 03380,1306 S Mary Ave,Sunnyvale,-122.05051,37.351379,Santa Clara,(408) 732-2729,https://www.walgreens.com/locator/walgreens-1306+s+mary+ave-sunnyvale-ca-94087/id=3380,OPERATIONAL
456,Walgreens 04416,20011 Bollinger Rd,Cupertino,-122.0234,37.309959,Santa Clara,(408) 973-8402,https://www.walgreens.com/locator/walgreens-20011+bollinger+rd-cupertino-ca-95014/id=4416,OPERATIONAL
457,CVS Pharmacy 9901,1125 Branham Ln,San Jose,-121.87841999999999,37.262535,Santa Clara,(408) 267-0911,https://www.cvs.com/store-locator/cvs-pharmacy-address/1125+Branham+Lane-San+Jose-CA-95118/storeid=9901?WT.mc_id=LS_GOOGLE_FS_9901,OPERATIONAL
458,CVS Pharmacy 9984,2701 Middlefield Rd,Palo Alto,-122.12926000000002,37.433414,Santa Clara,(650) 330-0132,https://www.cvs.com/store-locator/cvs-pharmacy-address/2701+Middlefield+Road-Palo+Alto-CA-94306/storeid=9984?WT.mc_id=LS_GOOGLE_FS_9984,OPERATIONAL
459,Target Store T-1851,6705 Camino Arroyo,Gilroy,-121.54903999999999,36.999794,Santa Clara,(408) 848-6466,https://www.target.com/sl/gilroy/1851,OPERATIONAL
460,CVS Pharmacy 9262,222 Saratoga Ave,Santa Clara,-121.96571000000002,37.328396000000005,Santa Clara,(408) 247-7250,https://www.cvs.com/store-locator/cvs-pharmacy-address/222+Saratoga+Avenue-Santa+Clara-CA-95050/storeid=9262?WT.mc_id=LS_GOOGLE_FS_9262,OPERATIONAL
461,Target Store T-1984,1750 Story Rd,San Jose,-121.84145,37.340927,Santa Clara,(408) 273-0054,https://www.target.com/sl/san-jose-story-road/1984,OPERATIONAL
462,Target Store T-2584,298 W McKinley Ave,Sunnyvale,-122.03208000000001,37.374439,Santa Clara,(408) 702-1012,https://www.target.com/sl/sunnyvale/2584,OPERATIONAL
463,Walgreens 06869,2605 Middlefield Rd,Palo Alto,-122.13066,37.434296,Santa Clara,(650) 566-9723,https://www.walgreens.com/locator/walgreens-2605+middlefield+rd-palo+alto-ca-94306/id=6869,OPERATIONAL
464,Primetime Nutrition 517,2001 Story Rd,San Jose,-121.83762,37.343754,Santa Clara,(408) 254-2540,http://nfiptn.com/,OPERATIONAL
465,Stop N Save 124,12304 Saratoga Sunnyvale Rd,Saratoga,-122.03228999999999,37.289219,Santa Clara,(408) 996-2203,No website listed,OPERATIONAL
466,Walgreens 07088,303 2nd St,Los Altos,-122.11583999999999,37.377357,Santa Clara,(650) 949-3378,https://www.walgreens.com/locator/walgreens-303+2nd+st-los+altos-ca-94022/id=7088,OPERATIONAL
467,COLLEGE MARKET,502 S 6th St,San Jose,-121.87946000000001,37.330978,Santa Clara,(408) 293-4156,http://www.sjliquor.com/index.html,OPERATIONAL
468,CVS Pharmacy 9395,525 W Capitol Expy,San Jose,-121.85236,37.274677000000004,Santa Clara,(408) 448-9224,https://www.cvs.com/store-locator/cvs-pharmacy-address/525+West+Capitol+Expy-San+Jose-CA-95136/storeid=9395?WT.mc_id=LS_GOOGLE_FS_9395,OPERATIONAL
469,CVS Pharmacy 3061,3475 McKee Rd,San Jose,-121.82713000000001,37.380897999999995,Santa Clara,(408) 272-9156,https://www.cvs.com/store-locator/cvs-pharmacy-address/3475+Mckee+Road-San+Jose-CA-95127/storeid=3061?WT.mc_id=LS_GOOGLE_FS_3061,OPERATIONAL
470,7-Eleven 14259B,1674 Foxworthy Ave,San Jose,-121.90743,37.270264000000005,Santa Clara,(408) 265-5231,https://www.7-eleven.com/locations/ca/san-jose/1674-foxworthy-ave-14259?yext=14259,OPERATIONAL
471,Walgreens 07326,423 N Santa Cruz Ave,Los Gatos,-121.98055,37.229946000000005,Santa Clara,(408) 354-8029,https://www.walgreens.com/locator/walgreens-423+n+santa+cruz+ave-los+gatos-ca-95030/id=7326,OPERATIONAL
472,Walgreens 04516,745 E Dunne Ave,Morgan Hill,-121.63887,37.129566,Santa Clara,(408) 782-9591,https://www.walgreens.com/locator/walgreens-745+e+dunne+ave-morgan+hill-ca-95037/id=4516,OPERATIONAL
473,CVS Pharmacy 9915,352 University Ave,Palo Alto,-122.16082,37.446667,Santa Clara,(650) 324-3248,https://www.cvs.com/store-locator/cvs-pharmacy-address/352+University+Avenue-Palo+Alto-CA-94301/storeid=9915?WT.mc_id=LS_GOOGLE_FS_9915,OPERATIONAL
474,CVS Pharmacy 9945,825 1st St,Gilroy,-121.58766000000001,37.013577000000005,Santa Clara,(408) 842-0373,https://www.cvs.com/store-locator/cvs-pharmacy-address/800+First+Street-Gilroy-CA-95020/storeid=9945?WT.mc_id=LS_GOOGLE_RX_9945,OPERATIONAL
475,CVS Pharmacy 9812,2514 Berryessa Rd,San Jose,-121.85956000000002,37.38728,Santa Clara,(408) 272-1431,https://www.cvs.com/store-locator/cvs-pharmacy-address/2514+Berryessa+Road-San+Jose-CA-95132/storeid=9812?WT.mc_id=LS_GOOGLE_FS_9812,OPERATIONAL
476,Walgreens 09782,780 E El Camino Real,Sunnyvale,-122.01923000000001,37.356831,Santa Clara,(408) 738-9430,https://www.walgreens.com/locator/walgreens-780+e+el+camino+real-sunnyvale-ca-94087/id=9782,OPERATIONAL
477,Lion Liquor,2415 Alvin Ave,San Jose,-121.82798999999999,37.319481,Santa Clara,(408) 238-4680,No website listed,OPERATIONAL
478,Dollar Tree 7395,3251 S White Rd,San Jose,-121.79287,37.315907,Santa Clara,(408) 826-3250,https://www.dollartree.com/locations/ca/san-jose/7395/?utm_source=Google&utm_medium=Maps&utm_campaign=Google+Places,OPERATIONAL
479,24 market,2010 Story Rd,San Jose,-121.83717,37.343807,Santa Clara,(408) 649-6339,No website listed,OPERATIONAL
480,Chavez Supermarket 7,2670 Monterey Hwy,San Jose,-121.8526,37.295101,Santa Clara,(408) 294-8399,http://www.chavezsuper.com/,OPERATIONAL
481,Target Store T-0322,555 Showers Dr,Mountain View,-122.1075,37.401653,Santa Clara,(650) 965-7764,https://www.target.com/sl/mountain-view/322,OPERATIONAL
482,Target Store T-0626,2155 Morrill Ave,San Jose,-121.87468,37.414757,Santa Clara,(408) 946-6791,https://www.target.com/sl/san-jose-landess/626,OPERATIONAL
483,Fw Liquor And Grocery,3127 Williamsburg Dr,San Jose,-121.95101000000001,37.29781,Santa Clara,(408) 866-2529,https://www.doordash.com/store/fw-liquor-and-grocery-san-jose-333446/434636/?utm_campaign=gpa,OPERATIONAL
484,Park & Hester Market,1451 Park Ave,San Jose,-121.91921,37.329906,Santa Clara,(408) 297-5083,No website listed,OPERATIONAL
485,Walgreens 09516,770 1st St,Gilroy,-121.58497,37.013443,Santa Clara,(408) 847-0983,https://www.walgreens.com/locator/walgreens-770+1st+st-gilroy-ca-95020/id=9516,OPERATIONAL
486,HALAL MEATS,1538 S de Anza Blvd,San Jose,-122.0321,37.296165,Santa Clara,(408) 865-1222,https://halal-meats.business.site/?m=true,OPERATIONAL
487,7 Eleven Store 2367 17496G,452 E Santa Clara St,San Jose,-121.88071000000001,37.340847,Santa Clara,(408) 298-0208,https://www.7-eleven.com/locations/ca/san-jose/452-e.-santa-clara-st-17496?yext=17496,OPERATIONAL
488,Bon Fare Market 12,2907 The Villages Pkwy,San Jose,-121.76043999999999,37.290836,Santa Clara,(408) 274-5858,http://www.bonfaremarkets.com/,OPERATIONAL
489,Lucky 773,3705 El Camino Real,Santa Clara,-121.9979,37.352428,Santa Clara,(408) 247-5200,No website listed,OPERATIONAL
490,S & S MARKET,502 S 10th St,San Jose,-121.87527,37.333057000000004,Santa Clara,(408) 275-9650,No website listed,OPERATIONAL
491,Monterey Mini Mart,2951 Monterey Hwy,San Jose,-121.84792,37.29002,Santa Clara,(408) 365-0501,No website listed,OPERATIONAL
492,Big Lots 4393,3735 El Camino Real,Santa Clara,-121.99883999999999,37.35239,Santa Clara,(408) 247-0389,https://local.biglots.com/ca/santa-clara/4393?utm_source=google&utm_medium=distrib&utm_campaign=google-distrib,OPERATIONAL
493,Alum Rock Farmers' Market,57 N White Rd,San Jose,-121.82956999999999,37.367474,Santa Clara,No formatted_phone_number listed,http://pcfma.org/,OPERATIONAL
494,7-Eleven 14248 C,250 W Maude Ave,Sunnyvale,-122.02835,37.388935,Santa Clara,(408) 736-3418,https://www.7-eleven.com/locations/ca/sunnyvale/250-west-maude-ave-14248?yext=14248,OPERATIONAL
495,7-Eleven 14240D,15 S Abbott Ave,Milpitas,-121.91415,37.428515999999995,Santa Clara,(408) 262-8783,https://www.7-eleven.com/locations/ca/milpitas/15-south-abbott-ave-14240?yext=14240,OPERATIONAL
496,7-Eleven 14270 B,2440 Almaden Expwy,San Jose,-121.87997,37.289761,Santa Clara,(408) 979-1702,https://www.7-eleven.com/locations/ca/san-jose/2440-almaden-expwy-14270?yext=14270,OPERATIONAL
497,7-Eleven 14300 E,284 S 11th St,San Jose,-121.87669,37.336788,Santa Clara,(408) 216-0667,https://www.7-eleven.com/locations/ca/san-jose/284-s-eleventh-st-14300?yext=14300,OPERATIONAL
498,7-Eleven 17674,1595 Branham Ln,San Jose,-121.9025,37.253338,Santa Clara,(408) 264-9223,https://www.7-eleven.com/locations/ca/san-jose/1595-branham-lane-17674?yext=17674,OPERATIONAL
499,STOP N SAVE 110,2297 McKee Rd,San Jose,-121.85038999999999,37.365269,Santa Clara,(408) 258-1586,No website listed,OPERATIONAL
500,Evergreen Shell 181,3290 S White Rd,San Jose,-121.79173,37.314262,Santa Clara,(408) 274-1160,https://find.shell.com/us/fuel/10008289-3290-s-white-rd,OPERATIONAL
501,Zhengpei Petrol Gilroy Corporation 83139,400 Leavesley Rd,Gilroy,-121.56873999999999,37.021496,Santa Clara,(408) 842-3630,http://www.rottenrobbie.com/,OPERATIONAL
502,Best Liquor,1055 Tully Rd,San Jose,-121.838,37.314358,Santa Clara,(408) 947-1625,No website listed,OPERATIONAL
503,7 Eleven 2710 37953A,890 Coleman Ave,San Jose,-121.91481,37.345963,Santa Clara,(408) 289-1684,https://www.7-eleven.com/locations/ca/san-jose/890-coleman-ave-37953?yext=37953,OPERATIONAL
504,Marina Grocery,25 N Milpitas Blvd,Milpitas,-121.90003,37.433323,Santa Clara,(408) 263-1288,https://m.facebook.com/pages/Marina-Grocery/158563550823655,OPERATIONAL
505,Food Maxx 491,3002 Story Rd,San Jose,-121.82008,37.355518,Santa Clara,(408) 937-1324,http://locations.foodmaxx.com/ll/US/CA/San-Jose/3002-Story-Rd_,OPERATIONAL
506,JERRYS MARKET,1491 S Main St,Milpitas,-121.9026,37.409225,Santa Clara,(408) 946-8050,https://jerrys-market.business.site/?utm_source=gmb&utm_medium=referral,OPERATIONAL
507,Charlies Liquor Market,166 W 10th St,Gilroy,-121.56773000000001,36.999699,Santa Clara,(408) 842-0746,No website listed,OPERATIONAL
508,Hanas Bottle Shop,3149 El Camino Real,Santa Clara,-121.98357,37.352505,Santa Clara,(408) 248-4949,No website listed,OPERATIONAL
509,Primetime Nutrition 533,301 N Jackson,San Jose,-121.85101,37.366001000000004,Santa Clara,(408) 259-6649,http://nfiptn.com/,OPERATIONAL
510,Primetime Nutrition 540,4100 Monterey Hwy,San Jose,-121.83575,37.278664,Santa Clara,(408) 224-1102,http://nfiptn.com/,OPERATIONAL
511,7 Eleven 2367-37730a 37730A,4199 Hamilton Ave,San Jose,-121.97621000000001,37.293827,Santa Clara,(408) 364-1904,https://www.7-eleven.com/locations/ca/san-jose/4199-hamilton-ave-37730?yext=37730,OPERATIONAL
512,7-Eleven 25561,617 Blossom Hill Rd,San Jose,-121.84253000000001,37.250735999999996,Santa Clara,(408) 629-0784,https://www.7-eleven.com/locations/ca/san-jose/617-blossom-hill-rd-25561?yext=25561,OPERATIONAL
513,Capital Shell 163,1601 N Capitol Ave,San Jose,-121.87216000000001,37.396763,Santa Clara,(408) 259-7816,https://find.shell.com/us/fuel/10008295-1601-n-capitol-ave,OPERATIONAL
514,Billa Discount Liquor # 1 1,1068 Story Road,San Jose,-121.8549,37.331718,Santa Clara,(408) 295-5812,No website listed,OPERATIONAL
515,Dollar Tree 3238,2425 Winchester Blvd,Campbell,-121.94985,37.27898,Santa Clara,(408) 963-2537,https://www.dollartree.com/locations/ca/campbell/3238/?utm_source=Google&utm_medium=Maps&utm_campaign=Google+Places,OPERATIONAL
516,Costco Wholesale 0760,7251 Camino Arroyo,Gilroy,-121.5545,37.008648,Santa Clara,(408) 848-0700,http://www.costco.com/warehouse-locations/gilroy-CA-760.html,OPERATIONAL
517,Costco Wholesale 1004,1709 Automation Pkwy,San Jose,-121.883,37.38879,Santa Clara,(408) 678-2150,http://www.costco.com/warehouse-locations/san-jose-CA-1004.html,OPERATIONAL
518,New India Bazar,2213 El Camino Real,Santa Clara,-121.96333999999999,37.352501000000004,Santa Clara,(408) 249-2599,http://www.newindiabazar.com/,OPERATIONAL
519,Dollar Tree 4293,251 Ranch Dr,Milpitas,-121.91931000000001,37.430408,Santa Clara,(408) 964-5835,https://www.dollartree.com/locations/ca/milpitas/4293/?utm_source=Google&utm_medium=Maps&utm_campaign=Google+Places,OPERATIONAL
520,Costco Wholesale 0129,1601 Coleman Ave,Santa Clara,-121.93728999999999,37.357665999999995,Santa Clara,(408) 567-9000,http://www.costco.com/warehouse-locations/santa-clara-CA-129.html,OPERATIONAL
521,Costco Wholesale 0143,1000 N Rengstorff Ave,Mountain View,-122.09348,37.419662,Santa Clara,(650) 988-1841,https://m.costco.com/warehouse-locations/mountain-view-ca-143.html,OPERATIONAL
522,Costco Wholesale 0148,2201 Senter Rd,San Jose,-121.85063999999998,37.310608,Santa Clara,(408) 275-0199,http://www.costco.com/warehouse-locations/san-jose-CA-148.html,OPERATIONAL
523,Costco Wholesale 0423,150 Lawrence Station Rd,Sunnyvale,-121.99603,37.372513,Santa Clara,(408) 730-1892,http://www.costco.com/warehouse-locations/sunnyvale-CA-423.html,OPERATIONAL
524,Costco Wholesale 0470,5301 Almaden Expy,San Jose,-121.87588999999998,37.254242,Santa Clara,(408) 723-0964,http://www.costco.com/warehouse-locations/san-jose-CA-470.html,OPERATIONAL
525,Super Liquor & Food,3255 Sierra Rd,San Jose,-121.84821000000001,37.399277000000005,Santa Clara,(408) 929-4860,No website listed,OPERATIONAL
526,7-Eleven 26763 C,834 E Fremont Ave,Sunnyvale,-122.01653,37.352051,Santa Clara,(408) 736-1580,https://www.7-eleven.com/locations/ca/sunnyvale/834-e.-fremont-ave-26763?yext=26763,OPERATIONAL
527,7-Eleven 14278 F,14700 Camden Ave,San Jose,-121.92857,37.261707,Santa Clara,(408) 377-8022,https://www.7-eleven.com/locations/ca/san-jose/14700-camden-ave-14278?yext=14278,OPERATIONAL
528,7-Eleven 16269A,4625 Albany Dr,San Jose,-121.9854,37.321342,Santa Clara,(408) 249-5929,https://www.7-eleven.com/locations/ca/san-jose/4625-albany-dr-16269?yext=16269,OPERATIONAL
529,7-Eleven 15429 E,276 N Whisman Rd,Mountain View,-122.05981000000001,37.396606,Santa Clara,(650) 961-8762,https://www.7-eleven.com/locations/ca/mountain-view/276-n-whisman-ave-15429?yext=15429,OPERATIONAL
530,7-Eleven 14219B,615 Old San Francisco Rd,Sunnyvale,-122.02221000000002,37.367199,Santa Clara,(408) 735-9080,https://www.7-eleven.com/locations/ca/sunnyvale/615-old-san-francisco-14219?yext=14219,OPERATIONAL
531,7-Eleven #27244 E,1039 Sunnyvale Saratoga Rd,Sunnyvale,-122.03245,37.35857,Santa Clara,(408) 245-9711,https://www.7-eleven.com/locations/ca/sunnyvale/1039-sunnyvale-saratoga-r-27244?yext=27244,OPERATIONAL
532,7-Eleven 22914 F,3110 Senter Rd,San Jose,-121.83391999999999,37.294121000000004,Santa Clara,(408) 250-2266,https://www.7-eleven.com/locations/ca/san-jose/3110-senter-rd-22914?yext=22914,OPERATIONAL
533,7-Eleven 14292 E,4270 Senter Rd,San Jose,-121.82338999999999,37.2803,Santa Clara,(408) 225-5040,https://www.7-eleven.com/locations/ca/san-jose/4270-senter-rd-14292?yext=14292,OPERATIONAL
534,Selam Market,2294 S Bascom Ave,Campbell,-121.93151999999999,37.281689,Santa Clara,(408) 377-3090,No website listed,OPERATIONAL
535,Quick Shop Market,395 N Fair Oaks Ave,Sunnyvale,-122.01795,37.383202000000004,Santa Clara,No formatted_phone_number listed,No website listed,OPERATIONAL
536,Cupertino Market,19725 Stevens Creek Blvd,Cupertino,-122.01795,37.32304,Santa Clara,(408) 777-9111,http://cupertinomarket.com/dairy,OPERATIONAL
537,Chevron 2217,7110 Camino Arroyo,Gilroy,-121.55236000000001,37.006554,Santa Clara,(408) 846-5230,http://www.chevronwithtechron.com/stations/station-finder.aspx,OPERATIONAL
538,Los Gatos Farmers Market,1 N. Santa Cruz Ave & Main St,Los Gatos,-121.98388,37.222542,Santa Clara,(925) 465-4690,http://www.cafarmersmkts.com/losgatos-farmers-market,OPERATIONAL
539,7-Eleven 16136 G,2065 White Oak Ln,Santa Clara,-121.99663999999999,37.360401,Santa Clara,(408) 241-1701,https://www.7-eleven.com/locations/ca/santa-clara/2065-white-oak-drive-16136?yext=16136,OPERATIONAL
540,7-Eleven 25480 B,5148 Moorpark Ave,San Jose,-121.99318999999998,37.309471,Santa Clara,(408) 257-3133,https://www.7-eleven.com/locations/ca/san-jose/5148-moorpark-ave-25480?yext=25480,OPERATIONAL
541,PAUL'S QUICK STOP,709 Stockton Ave,San Jose,-121.91367,37.34082,Santa Clara,(408) 999-0747,No website listed,OPERATIONAL
542,Wolfe India Bazar,854 Old San Francisco Rd,Sunnyvale,-122.01586999999999,37.366543,Santa Clara,(408) 749-1902,http://www.wolfeindiabazar.com/,OPERATIONAL
543,Walgreens 15246,2140 El Camino Real,Santa Clara,-121.9621,37.352257,Santa Clara,(408) 246-1054,https://www.walgreens.com/locator/walgreens-2140+el+camino+real-santa+clara-ca-95050/id=15246,OPERATIONAL
544,Safeway 2150,1489 Bird Ave,San Jose,-121.88977,37.305842999999996,Santa Clara,(408) 878-0691,https://local.safeway.com/safeway/ca/san-jose/1489-bird-ave.html?utm_source=G&utm_medium=Maps&utm_campaign=G+Places,OPERATIONAL
545,Liquor And Food,1228 S Wolfe Rd,Sunnyvale,-122.01408,37.353951,Santa Clara,(408) 721-7956,http://nearbyliquorandfood.com/,OPERATIONAL
546,New India Bazaar,1340 S Mary Ave,Sunnyvale,-122.05048000000001,37.350513,Santa Clara,(408) 530-9555,http://www.newindiabazar.com/,OPERATIONAL
547,International Gourmet Foods,2052 Curtner Ave,San Jose,-121.93364,37.272503,Santa Clara,(408) 559-3397,http://www.intlfoodbazaar.com/,OPERATIONAL
548,Saratoga Farmers Market,14000 Fruitvale Ave,Saratoga,-122.01369,37.265785,Santa Clara,(925) 465-4690,http://cafarmersmkts.com/saratoga.html,OPERATIONAL
549,Campbell Liquors & Deli,479 E Campbell Ave,Campbell,-121.94123,37.287102000000004,Santa Clara,(408) 871-0572,https://postmates.com/drinks,OPERATIONAL
550,Seafood City Supermarket,1535 Landess Ave,Milpitas,-121.8764,37.415718,Santa Clara,(408) 945-1194,http://www.seafoodcity.com/,OPERATIONAL
551,CVS Pharmacy 3938,1496 Pollard Rd,Los Gatos,-121.98404,37.264568,Santa Clara,(408) 376-3554,https://www.cvs.com/store-locator/cvs-pharmacy-address/1496+Pollard+Road-Los+Gatos-CA-95032/storeid=3938?WT.mc_id=LS_GOOGLE_FS_3938,OPERATIONAL
552,Trader Joes 207,855 El Camino Real,Palo Alto,-122.16116000000001,37.438381,Santa Clara,(650) 327-7018,https://locations.traderjoes.com/ca/palo-alto/207/?utm_source=Google&utm_medium=Maps&utm_campaign=Google+Places,OPERATIONAL
553,Paul's  Liquor & Market 8,9305 Monterey Rd,Gilroy,-121.5813,37.031937,Santa Clara,(408) 337-1661,No website listed,OPERATIONAL
554,Walgreens 13596,300 University Ave,Palo Alto,-122.16153999999999,37.445889,Santa Clara,(650) 326-3404,https://www.walgreens.com/locator/walgreens-300+university+ave-palo+alto-ca-94301/id=13596,OPERATIONAL
555,Cardenas 222,1070 S White Rd,San Jose,-121.8195,37.356559999999995,Santa Clara,(408) 856-6461,https://locations.cardenasmarkets.com/ll/US/CA/San-Jose/1070-S-White-Rd,OPERATIONAL
556,Desi India Bazaar,1584 Branham Ln,San Jose,-121.90189,37.253506,Santa Clara,(408) 265-6031,https://desi-india-bazaar.business.site/,OPERATIONAL
557,7-Eleven Store 29507E,1040 Piedmont Rd,San Jose,-121.84335,37.392456,Santa Clara,(408) 926-4545,https://www.7-eleven.com/locations/ca/san-jose/1040-piedmont-road-29507?yext=29507,OPERATIONAL
558,7-eleven 14320 F,21220 Homestead Rd,Cupertino,-122.045,37.337482,Santa Clara,(408) 735-8004,https://www.7-eleven.com/locations/ca/cupertino/21220-homestead-rd-14320?yext=14320,OPERATIONAL
559,Rais India Bazar,124 Blossom Hill Rd,San Jose,-121.80663999999999,37.252518,Santa Clara,(408) 225-3216,No website listed,OPERATIONAL
560,Cardenas 215,1731 E Bayshore Rd,East Palo Alto,-122.1379,37.459408,Santa Clara,(650) 248-2171,https://locations.cardenasmarkets.com/ll/US/CA/East-Palo-Alto/1731-E-Bayshore-Rd,OPERATIONAL
561,7-Eleven 14263D,188 N 6th St,San Jose,-121.88728,37.341457,Santa Clara,(408) 287-8466,https://www.7-eleven.com/locations/ca/san-jose/188-n-sixth-st-14263?yext=14263,OPERATIONAL
562,Senter Food,3975 Senter Rd,San Jose,-121.82378999999999,37.283031,Santa Clara,(408) 227-8772,No website listed,OPERATIONAL
563,New India Bazar,440 S Main St,Milpitas,-121.90498000000001,37.423519,Santa Clara,(408) 262-5300,http://www.newindiabazar.com/,OPERATIONAL
564,Dollar Tree 4547,3024 El Camino Real,Santa Clara,-121.98106999999999,37.352268,Santa Clara,(408) 556-4719,https://www.dollartree.com/locations/ca/santa-clara/4547/?utm_source=Google&utm_medium=Maps&utm_campaign=Google+Places,OPERATIONAL
565,SAFEWAY  1455,840 E Dunne Ave,Morgan Hill,-121.63663000000001,37.130276,Santa Clara,(408) 776-8720,https://local.safeway.com/safeway/ca/morgan-hill/840-e-dunne-ave.html?utm_source=G&utm_medium=Maps&utm_campaign=G+Places,OPERATIONAL
566,La Plaza Market 2,40 S Rengstorff Ave,Mountain View,-122.09766,37.402843,Santa Clara,(650) 967-3630,http://www.laplazasupermarket.com/,OPERATIONAL
567,Oakridge Farmers Market,925 Blossom Hill Rd,San Jose,-121.86362,37.250519,Santa Clara,(925) 465-4690,http://www.cafarmersmkts.com/farmers-market-westfield-oakridge,OPERATIONAL
568,NOB HILL FOODS 635,6061 Snell Ave,San Jose,-121.83068,37.237331,Santa Clara,(408) 225-0546,https://www.raleys.com/stores/nob-hill-foods-snell-san-jose-california/,OPERATIONAL
569,Easy Mart,150 Leavesley Rd,Gilroy,-121.57332,37.019756,Santa Clara,No formatted_phone_number listed,No website listed,OPERATIONAL
570,Grocery Outlet Of West San Jose,3140 Williams Rd,San Jose,-121.95187,37.308815,Santa Clara,(408) 241-2182,https://groceryoutlet.com/circulars/storeid/125,OPERATIONAL
571,LA TIENDITA,510 Oconnor St,East Palo Alto,-122.14378,37.460369,Santa Clara,(650) 853-0632,No website listed,OPERATIONAL
572,Sprouts Farmers Market 216,111 E El Camino Real,Sunnyvale,-122.03098999999999,37.366882000000004,Santa Clara,(408) 702-1172,https://sprouts.com/store/ca/sunnyvale/sunnyvale,OPERATIONAL
573,Pacheco Pass Chevron 5864,6901 Cameron Blvd,Gilroy,-121.54737,37.003456,Santa Clara,(408) 849-2667,https://www.chevronwithtechron.com/station/6901-Cameron-Blvd-Gilroy-CA-95020-id381289,OPERATIONAL
574,7-Eleven 25834 C,3500 Stevens Creek Blvd,San Jose,-121.95997,37.323223,Santa Clara,(408) 554-0794,https://www.7-eleven.com/locations/ca/san-jose/3500-stevens-creek-blvd-25834?yext=25834,OPERATIONAL
575,Kamal Spice House 1,385 N Capitol Ave,San Jose,-121.84517,37.372059,Santa Clara,(408) 923-8742,https://www.facebook.com/KamalSpiceHouse/,OPERATIONAL
576,Mi Rancho Supermarket,2806 Story Rd,San Jose,-121.82421000000001,37.352688,Santa Clara,(408) 259-3333,http://www.miranchosupermarket.com/,OPERATIONAL
577,7 Eleven Store 39660A,1005 W El Camino Real,Sunnyvale,-122.04903999999999,37.372078,Santa Clara,(408) 720-0224,https://www.7-eleven.com/locations/ca/sunnyvale/1005-w-el-camino-real-39660?yext=39660,OPERATIONAL
578,Paul's Liquor & Market 8,16715a Monterey St,Morgan Hill,-121.64777,37.121277,Santa Clara,(408) 612-8394,No website listed,OPERATIONAL
579,Santa Clara Vmc,751 South Bascom Ave.,Santa Clara,-121.93185,37.312866,Santa Clara,(408) 885-5000,http://scvmcrehab.org/,OPERATIONAL
580,Lincoln Liquors,2049 Lincoln Ave,San Jose,-121.89027,37.293571,Santa Clara,(408) 267-1237,No website listed,OPERATIONAL
581,East Palo Alto Community Farmers' Market,1885 Bay Rd,East Palo Alto,-122.13241000000001,37.472786,Santa Clara,(650) 427-9253,http://pafarmersmarket.org/,OPERATIONAL
582,7 Eleven 2366 18584E,401 Waverley St,Palo Alto,-122.16143999999998,37.447796000000004,Santa Clara,(650) 326-2614,https://www.7-eleven.com/locations/ca/palo-alto/401-waverley-street-18584?yext=18584,OPERATIONAL
583,WALGREENS 2384,2680 Union Ave,San Jose,-121.9332,37.273293,Santa Clara,(408) 371-5426,https://www.walgreens.com/locator/walgreens-2680+union+ave-san+jose-ca-95124/id=2384,OPERATIONAL
584,WALGREEN'S 842,350 N Capitol Ave,San Jose,-121.84423000000001,37.37149,Santa Clara,(408) 259-9200,https://www.walgreens.com/locator/walgreens-350+n+capitol+ave-san+jose-ca-95133/id=842,OPERATIONAL
585,WALGREEN'S 900,2105 Morrill Ave,San Jose,-121.87421,37.413895000000004,Santa Clara,(408) 263-5550,https://www.walgreens.com/locator/walgreens-2105+morrill+ave-san+jose-ca-95132/id=900,OPERATIONAL
586,WALGREENS 1179,1795 E Capitol Expy,San Jose,-121.80936000000001,37.309090000000005,Santa Clara,(408) 238-5890,https://www.walgreens.com/locator/walgreens-1795+e+capitol+expy-san+jose-ca-95121/id=1179,OPERATIONAL
587,WALGREENS 3754,1399 W San Carlos St,San Jose,-121.91355,37.323547,Santa Clara,(408) 971-3098,https://www.walgreens.com/locator/walgreens-1399+w+san+carlos+st-san+jose-ca-95126/id=3754,OPERATIONAL
588,WALGREENS 2786,14100 Blossom Hill Rd,Los Gatos,-121.91393000000001,37.236198,Santa Clara,(408) 356-1152,https://www.walgreens.com/locator/walgreens-14100+blossom+hill+rd-los+gatos-ca-95032/id=2786,OPERATIONAL
589,WALGREEN'S 3671,342 W Calaveras Blvd,Milpitas,-121.91174,37.426853,Santa Clara,(408) 263-3963,https://www.walgreens.com/locator/walgreens-342+w+calaveras+blvd-milpitas-ca-95035/id=3671,OPERATIONAL
590,WALGREEN'S 3445,2799 S White Rd,San Jose,-121.79733,37.325641999999995,Santa Clara,(408) 528-9349,https://www.walgreens.com/locator/walgreens-2799+s+white+rd-san+jose-ca-95148/id=3445,OPERATIONAL
591,WALGREEN'S 3378,1376 Kooser Rd,San Jose,-121.8886,37.246025,Santa Clara,(408) 448-2503,https://www.walgreens.com/locator/walgreens-1376+kooser+rd-san+jose-ca-95118/id=3378,OPERATIONAL
592,LOS PRIMOS MEAT MARKET 2,1539 S Winchester Blvd,San Jose,-121.94997,37.296001000000004,Santa Clara,No formatted_phone_number listed,No website listed,OPERATIONAL
593,Stop N Save 115,1795 Scott Blvd,Santa Clara,-121.9595,37.355461,Santa Clara,(408) 244-3449,http://www.featherpetro.com/,OPERATIONAL
594,CALIFORNIA STREET MARKET,1595 California St,Mountain View,-122.08941000000002,37.394721999999994,Santa Clara,(650) 967-5284,http://locations.moneygram.com/ca/mountain-view/301679088,OPERATIONAL
595,Arteaga's Food Center (Lincoln),1003 Lincoln Ave,San Jose,-121.90391000000001,37.312283,Santa Clara,(408) 882-0117,https://arteagas.com/,OPERATIONAL
596,LA CANASTA GROCERY,3074 Monterey Hwy,San Jose,-121.84546999999999,37.288071,Santa Clara,(408) 227-5700,No website listed,CLOSED_PERMANENTLY
597,Medex Drugs,401 E Santa Clara St,San Jose,-121.88184,37.340365999999996,Santa Clara,(408) 292-8244,http://www.medexdrugs.com/,OPERATIONAL
598,Walmart Store 2002,7150 Camino Arroyo,Gilroy,-121.55293999999999,37.007092,Santa Clara,(408) 848-8161,https://www.walmart.com/store/2002/gilroy-ca/details,OPERATIONAL
599,7-Eleven 14302B,4630 Pearl Ave,San Jose,-121.86551999999999,37.264793,Santa Clara,(408) 265-6761,https://www.7-eleven.com/locations/ca/san-jose/4630-pearl-ave-14302?yext=14302,OPERATIONAL
600,7-Eleven 18039C,1639 Alum Rock Ave,San Jose,-121.85763999999999,37.351836999999996,Santa Clara,(408) 259-3730,https://www.7-eleven.com/locations/ca/san-jose/1639-alum-rock-ave-18039?yext=18039,OPERATIONAL
601,7-Eleven 20418C,3861 7 Trees Blvd,San Jose,-121.8332,37.283669,Santa Clara,(408) 226-0923,https://www.7-eleven.com/locations/ca/san-jose/3861-seven-trees-blvd-20418?yext=20418,OPERATIONAL
602,Cardenas 204,1745 Story Rd,San Jose,-121.84234,37.340584,Santa Clara,(408) 259-3421,https://locations.cardenasmarkets.com/ll/US/CA/San-Jose/1745-Story-Rd,OPERATIONAL
603,C & L Liquor,790 W Hamilton Ave,Campbell,-121.96333999999999,37.294071,Santa Clara,(669) 300-6535,No website listed,OPERATIONAL
604,Sun Valley Market,16725 Monterey St,Morgan Hill,-121.64782,37.121357,Santa Clara,(408) 779-1863,https://sunvalleymarket.business.site/,OPERATIONAL
605,Anwar Bazaar & Bakery,2626 Union Ave,San Jose,-121.93338999999999,37.273815,Santa Clara,(408) 559-6175,No website listed,OPERATIONAL
606,7 Eleven Store 2367 14276E,1711 Mckee Road,San Jose,-121.86036999999999,37.358475,Santa Clara,(408) 259-0274,https://www.7-eleven.com/locations/ca/san-jose/1711-mckee-rd-14276?yext=14276,OPERATIONAL
607,Apatzingan Market,901 Oakland Rd,San Jose,-121.89108,37.359531,Santa Clara,(408) 297-1163,No website listed,OPERATIONAL
608,Quik Stop Market 9070,5 Stewart Ave,San Jose,-121.82681000000001,37.366046999999995,Santa Clara,(408) 926-3911,http://www.quikstop.com/,OPERATIONAL
609,Letrieu Circle K 1,398 1st St,Gilroy,-121.57677,37.013335999999995,Santa Clara,(408) 842-6777,https://www.circlek.com/store-locator/us/gilroy/398-first-st/2655293,OPERATIONAL
610,MERCADO CALIFORNIA,5302 Monterey Hwy,San Jose,-121.80793999999999,37.259113,Santa Clara,(408) 227-9594,No website listed,OPERATIONAL
611,SAFEWAY 0316,179 Branham Ln,San Jose,-121.83308000000001,37.266068,Santa Clara,(408) 227-4961,https://local.safeway.com/safeway/ca/san-jose/179-branham-ln.html?utm_source=G&utm_medium=Maps&utm_campaign=G+Places,OPERATIONAL
612,Alum Rock Market / Mi Ranchito  Produce,2243 Alum Rock Ave,San Jose,-121.84481000000001,37.358028000000004,Santa Clara,(209) 362-9282,No website listed,OPERATIONAL
613,Lucky 766,3270 S White Rd,San Jose,-121.79227,37.315178,Santa Clara,(408) 270-6120,No website listed,OPERATIONAL
614,99 Ranch Market 79,10425 S De Anza Blvd,Cupertino,-122.03242,37.316792,Santa Clara,(408) 517-8899,http://www.99ranch.com/,OPERATIONAL
615,J B Liquor,1096 McLaughlin Ave,San Jose,-121.85383999999999,37.333061,Santa Clara,(408) 998-3479,No website listed,OPERATIONAL
616,Whole Foods Market 10320,1146 Blossom Hill Rd,San Jose,-121.87742,37.250443,Santa Clara,(408) 266-3700,http://www.wholefoodsmarket.com/stores/blossomhill,OPERATIONAL
617,Namaste Plaza,10 S Abbott Ave,Milpitas,-121.91396,37.428326,Santa Clara,(408) 493-6786,http://www.namasteplaza.net/,OPERATIONAL
618,Cherry Liquor & Groceries,1443 Bird Ave,San Jose,-121.89055,37.306568,Santa Clara,(408) 293-4661,No website listed,OPERATIONAL
619,South Bay Natural Foods,8120 Westwood Dr,Gilroy,-121.59371999999999,37.014175,Santa Clara,(408) 842-6645,https://m.facebook.com/profile.php?id=220804621849534&ref=content_filter,OPERATIONAL
620,Baystop,1795 McKee Rd,San Jose,-121.85798999999999,37.360115,Santa Clara,(408) 259-2711,No website listed,OPERATIONAL
621,Lee Supermarket Inc.,2889 Senter Rd,San Jose,-121.83853,37.298481,Santa Clara,(408) 629-9999,No website listed,OPERATIONAL
622,Chevron 1517,825 E Dunne Ave,Morgan Hill,-121.63701,37.130356,Santa Clara,(408) 779-2913,http://www.chevronwithtechron.com/stations/station-finder.aspx,OPERATIONAL
623,7 Eleven 23846G,550 Keyes St,San Jose,-121.86688999999998,37.325035,Santa Clara,(408) 320-2705,https://www.7-eleven.com/locations/ca/san-jose/550-keyes-st-23846?yext=23846,OPERATIONAL
624,Lion Market 18,1070 Story Rd,San Jose,-121.85413,37.332275,Santa Clara,(408) 288-8188,https://www.lionsupermarket.com/,OPERATIONAL
625,FRUITDALE LIQUOR & GROCERY,2169 Fruitdale Ave,San Jose,-121.93098,37.310734000000004,Santa Clara,(408) 295-0332,No website listed,OPERATIONAL
626,7-Eleven 14253C,2577 S King Rd,San Jose,-121.8231,37.319401,Santa Clara,(408) 274-1666,https://www.7-eleven.com/locations/ca/san-jose/2577-south-king-rd-14253?yext=14253,OPERATIONAL
627,Safeway 3251,20620 Homestead Rd,Cupertino,-122.03419,37.337521,Santa Clara,(408) 253-0112,https://local.safeway.com/safeway/ca/cupertino/20620-w-homestead-rd.html?utm_source=G&utm_medium=Maps&utm_campaign=G+Places,OPERATIONAL
628,Kaiser San Jose,270 International Cir,San Jose,-121.79956999999999,37.240433,Santa Clara,(408) 972-6380,https://healthy.kaiserpermanente.org/html/kaiser/index.shtml,OPERATIONAL
629,KUMARS ISLAND MARKET,1440 E Santa Clara St,San Jose,-121.8628,37.349334999999996,Santa Clara,(408) 287-0557,http://botm.oceanikapress.com/resources-2/island-specialty-markets/,OPERATIONAL
630,7-ELEVEN #16422 D,370 Leavesley Rd,Gilroy,-121.57003999999999,37.021004,Santa Clara,No place found,No place found,No place found
631,MEL'S MINI MART & LIQUOR,1500 Kiely Blvd,Santa Clara,-121.97768,37.351414,Santa Clara,(408) 249-2161,No website listed,OPERATIONAL
632,SAFEWAY  1990,3970 Rivermark Plz,Santa Clara,-121.94728,37.395367,Santa Clara,(408) 855-0980,https://local.safeway.com/safeway/ca/santa-clara/3970-rivermark-plaza.html?utm_source=G&utm_medium=Maps&utm_campaign=G+Places,OPERATIONAL
633,Grewal Food & Liqour,601 S 10th St,San Jose,-121.87416999999999,37.331413,Santa Clara,(408) 292-5323,No website listed,OPERATIONAL
634,LUNARDI'S MARKET 4,4650 Meridian Ave,San Jose,-121.89848,37.25563,Santa Clara,(408) 265-9101,https://www.lunardis.com/,OPERATIONAL
635,Quik Stop Market 6086,1100 Lucretia Ave,San Jose,-121.85711,37.329884,Santa Clara,(408) 279-3277,http://www.quikstop.com/,OPERATIONAL
636,TRADER JOE'S 63,5353 Almaden Expressway,San Jose,-121.87567,37.252262,Santa Clara,(408) 264-8120,https://locations.traderjoes.com/ca/san-jose/63/?utm_source=Google&utm_medium=Maps&utm_campaign=Google+Places,OPERATIONAL
637,TRADER JOE'S  62,5269 Prospect Rd,San Jose,-121.99441999999999,37.292175,Santa Clara,(408) 446-5055,https://locations.traderjoes.com/ca/san-jose/62/?utm_source=Google&utm_medium=Maps&utm_campaign=Google+Places,OPERATIONAL
638,Trader Joes 68,316 W El Camino Real,Sunnyvale,-122.03563999999999,37.368706,Santa Clara,(408) 736-7573,https://locations.traderjoes.com/ca/sunnyvale/68/?utm_source=Google&utm_medium=Maps&utm_campaign=Google+Places,OPERATIONAL
639,TRADER JOE'S  73,1875 S Bascom Ave,Campbell,-121.93182,37.289539000000005,Santa Clara,(408) 369-7823,https://locations.traderjoes.com/ca/campbell/73/?utm_source=Google&utm_medium=Maps&utm_campaign=Google+Places,OPERATIONAL
640,TRADER JOE'S  81,590 Showers Dr,Mountain View,-122.10803999999999,37.401245,Santa Clara,(650) 917-1013,https://locations.traderjoes.com/ca/mountain-view/81/?utm_source=Google&utm_medium=Maps&utm_campaign=Google+Places,OPERATIONAL
641,TRADER JOE'S 127,2310 Homestead Rd,Los Altos,-122.06747,37.337677,Santa Clara,(408) 245-1917,https://locations.traderjoes.com/ca/los-altos/127/?utm_source=Google&utm_medium=Maps&utm_campaign=Google+Places,OPERATIONAL
642,Lion Food Center 6,471 Saratoga Ave,San Jose,-121.97375,37.318832,Santa Clara,(408) 554-9398,http://www.lionsupermarket.com/,OPERATIONAL
643,Sunnyvale Grocery Outlet 320,1180 N Fair Oaks way,Sunnyvale,-122.01046000000001,37.405128000000005,Santa Clara,(408) 962-0297,https://groceryoutlet.com/circulars/storeid/320,OPERATIONAL
644,"Nmso, Inc. 68117",1370 Camden Ave,Campbell,-121.94438999999998,37.268932,Santa Clara,No formatted_phone_number listed,No website listed,No business_status listed
645,Carniceria Rodriguez,2398 University Ave,East Palo Alto,-122.13943,37.471443,Santa Clara,(650) 322-9838,No website listed,OPERATIONAL
646,Bharat Bazar 3,1165 Reed Ave,Sunnyvale,-121.99715,37.366886,Santa Clara,(408) 261-2424,http://www.shopbharatbazar.com/,OPERATIONAL
647,Galamart,1193 W El Camino Real,Sunnyvale,-122.05538,37.373707,Santa Clara,(408) 730-5957,No website listed,OPERATIONAL
648,Jackson Liquors & Food,150 S Jackson Ave,San Jose,-121.84116999999999,37.356190000000005,Santa Clara,(408) 937-1314,No website listed,OPERATIONAL
649,Cardenas 203,235 E Julian St,San Jose,-121.88905,37.342857,Santa Clara,(408) 292-3177,https://locations.cardenasmarkets.com/ll/US/CA/San-Jose/235-E-Julian-St,OPERATIONAL
650,Monterey Liquors,1651 Monterey Hwy,San Jose,-121.86995,37.312241,Santa Clara,(408) 299-0493,No website listed,OPERATIONAL
651,Mi Jalisco Market,5210 N First St,Alviso,-121.97401,37.425686,Santa Clara,(408) 934-9695,No website listed,OPERATIONAL
652,The Market At North Park,41 Rio Robles E,San Jose,-121.94203,37.406307,Santa Clara,(408) 944-9103,No website listed,OPERATIONAL
653,Corner Shop Stop,1684 S 7th St,San Jose,-121.86543999999999,37.314102,Santa Clara,(408) 286-1184,No website listed,OPERATIONAL
654,Cardenas 220,727 1st St,Gilroy,-121.58296000000001,37.013477,Santa Clara,(408) 493-0113,https://locations.cardenasmarkets.com/ll/US/CA/Gilroy/727-1st-St,OPERATIONAL
655,Chavez Supermarket 8,646 Blossom Hill Rd,San Jose,-121.84521000000001,37.250465000000005,Santa Clara,(408) 226-1452,http://www.chavezsuper.com/,OPERATIONAL
656,Target 2830,2004 El Camino Real,Santa Clara,-121.96095,37.352283,Santa Clara,(669) 342-3320,https://www.target.com/sl/santa-clara/2830,OPERATIONAL
657,Target Store T-2581,95 Holger Way,San Jose,-121.95493,37.417427,Santa Clara,(408) 834-1527,https://www.target.com/sl/san-jose-north/2581,OPERATIONAL
658,7-Eleven 18219 E,951 S Winchester Blvd,San Jose,-121.95011000000001,37.309513,Santa Clara,(408) 985-0801,https://www.7-eleven.com/locations/ca/san-jose/951-s.-winchester-blvd-18219?yext=18219,OPERATIONAL
659,Anchor Business Ventures Inc 83297,5498 Monterey Hwy,San Jose,-121.80373999999999,37.256599,Santa Clara,No formatted_phone_number listed,No website listed,No business_status listed
660,LION SUPER,1710 Tully Rd,San Jose,-121.82529,37.322624,Santa Clara,(408) 238-4451,http://www.lionsupermarket.com/,OPERATIONAL
661,7 Eleven 38411a 38411A,96 S 3rd St,San Jose,-121.88755,37.336018,Santa Clara,(408) 832-6952,http://www.7-eleven.com/,OPERATIONAL
662,HAPPY HOLLOW MARKET,1704 Senter Rd,San Jose,-121.85825,37.318054,Santa Clara,(408) 289-8567,No website listed,OPERATIONAL
663,LA MEXICANA BAKERY,1170 E William St,San Jose,-121.86253,37.341167,Santa Clara,(408) 298-1409,No website listed,OPERATIONAL
664,7 Eleven 2366 14236C,1555 Los Padres Blvd,Santa Clara,-121.96486999999999,37.351753,Santa Clara,(408) 554-1432,https://www.7-eleven.com/locations/ca/santa-clara/1555-los-padres-blvd-14236?yext=14236,OPERATIONAL
665,California Food Mart,100 W Hamilton Ave,Campbell,-121.95178,37.294163,Santa Clara,No formatted_phone_number listed,No website listed,OPERATIONAL
666,Madrone Market N/A,19120 Monterey Rd,Morgan Hill,-121.67115,37.150249,Santa Clara,(408) 778-1343,No website listed,OPERATIONAL
667,SMART & FINAL 530,1783 Hillsdale Ave,San Jose,-121.91566999999999,37.264332,Santa Clara,(408) 264-0454,http://locations.smartandfinal.com/ca/san-jose/530/?utm_source=Google&utm_medium=Maps&utm_campaign=Google+Places,OPERATIONAL
668,Quik Stop Market 4093,8400 Church St,Gilroy,-121.57708000000001,37.019405,Santa Clara,(408) 842-9096,http://www.quikstop.com/,OPERATIONAL
669,Walmart SuperCenter 5435,777 Story Rd,San Jose,-121.85853,37.329563,Santa Clara,(408) 885-1760,https://www.walmart.com/store/5435/san-jose-ca/details,OPERATIONAL
670,Sprouts Farmers Market 406,1028 E Brokaw Rd,San Jose,-121.89948000000001,37.382626,Santa Clara,(408) 490-3041,https://sprouts.com/store/ca/san-jose/san-jose-brokaw-rd,OPERATIONAL
671,Quik Stop Market 9069,1105 Leeward Dr,San Jose,-121.83044,37.348225,Santa Clara,(408) 258-7455,http://www.quikstop.com/,OPERATIONAL
672,7 Eleven Store 18965C,1408 N 1st St,San Jose,-121.90961999999999,37.361969,Santa Clara,(408) 392-9207,https://www.7-eleven.com/locations/ca/san-jose/1408-n-1st-st-18965?yext=18965,OPERATIONAL
673,COUNTRY SUN NATURAL FOODS,440 S California Ave,Palo Alto,-122.14511999999999,37.426021999999996,Santa Clara,(650) 324-9190,http://countrysun.com/,OPERATIONAL
674,Lucky 723,2175 Grant Rd,Los Altos,-122.07231999999999,37.341747,Santa Clara,(650) 969-1326,No website listed,OPERATIONAL
675,Lime Tree Market,812 S Winchester Blvd,San Jose,-121.95,37.312740000000005,Santa Clara,(408) 679-3238,No website listed,OPERATIONAL
676,7-eleven 15071D,6059 Cahalan Ave,San Jose,-121.85049,37.239723,Santa Clara,(408) 578-3641,https://www.7-eleven.com/locations/ca/san-jose/6059-cahalan-ave-15071?yext=15071,OPERATIONAL
677,7-ELEVEN 14336 E,77 Newell Rd,Palo Alto,-122.13661,37.456913,Santa Clara,(650) 324-8592,https://www.7-eleven.com/locations/ca/east-palo-alto/77-newell-rd-14336?yext=14336,OPERATIONAL
678,7-Eleven 15440 E,787 S 11th St,San Jose,-121.87146000000001,37.32962,Santa Clara,(408) 294-7214,https://www.7-eleven.com/locations/ca/san-jose/787-s-11th-st-15440?yext=15440,OPERATIONAL
679,GURU MARKET 7,300 N 13th St,San Jose,-121.88136999999999,37.346554,Santa Clara,(408) 947-8900,No website listed,OPERATIONAL
680,QUIK STOP MARKET 4040,3695 Pearl Ave,San Jose,-121.86948999999998,37.273216,Santa Clara,(408) 264-0780,http://www.quikstop.com/,OPERATIONAL
681,NOB HILL FOODS  603,451 Vineyard Town Ctr,Morgan Hill,-121.6422,37.110447,Santa Clara,(408) 779-8485,https://www.raleys.com/stores/nob-hill-foods-vinyard-town-morgan-hill-california/,OPERATIONAL
682,Ahlone Chynoweth Mini Market,5330 Terner Way,San Jose,-121.86200000000001,37.25761,Santa Clara,(408) 300-1265,No website listed,OPERATIONAL
683,Cardenas 212,320 N Capitol Ave,San Jose,-121.84331999999999,37.37064,Santa Clara,(408) 240-0590,https://locations.cardenasmarkets.com/ll/US/CA/San-Jose/320-N-Capitol-Ave,OPERATIONAL
684,7 Eleven 14321c 14321C,1951 Old Middlefield Way,Mountain View,-122.08962,37.414017,Santa Clara,(650) 961-5913,https://www.7-eleven.com/locations/ca/mountain-view/1951-old-middlefield-way-14321?yext=14321,OPERATIONAL
685,MOLLIE STONE'S MARKETS,164 S California Ave,Palo Alto,-122.14288,37.428818,Santa Clara,(650) 323-8361,http://www.molliestones.com/,OPERATIONAL
686,Zanotto's Family Market 1,1970 Naglee Ave,San Jose,-121.93118,37.328445,Santa Clara,(408) 294-9151,http://www.zanottos.com/,OPERATIONAL
687,SAFEWAY 1483,1530 Hamilton Ave,San Jose,-121.91108,37.294403,Santa Clara,(408) 264-1523,https://local.safeway.com/safeway/ca/san-jose/1530-hamilton-ave.html?utm_source=G&utm_medium=Maps&utm_campaign=G+Places,OPERATIONAL
688,NOB HILL FOODS 606,1602 W Campbell Ave,Campbell,-121.97822,37.285965000000004,Santa Clara,(408) 379-6650,https://www.raleys.com/stores/nob-hill-foods-w-campbell-campbell-california/,OPERATIONAL
689,SAFEWAY  919,12876 Saratoga Sunnyvale Rd,Saratoga,-122.03226000000001,37.281044,Santa Clara,(408) 867-0180,https://local.safeway.com/safeway/ca/saratoga/12876-saratoga-sunnyvale-rd.html?utm_source=G&utm_medium=Maps&utm_campaign=G+Places,OPERATIONAL
690,THE MILK PAIL DAIRY,2585 California St,Mountain View,-122.10998000000001,37.405445,Santa Clara,(650) 941-2505,http://www.milkpail.com/,CLOSED_PERMANENTLY
691,7-ELEVEN #14215 G,815 Bing Dr,Santa Clara,-121.9929,37.338566,Santa Clara,(408) 247-8727,https://www.7-eleven.com/locations/ca/santa-clara/815-bing-dr-14215?yext=14215,OPERATIONAL
692,"THIEN THANH SUPERMARKET, INC.",1080 S 10th St,San Jose,-121.86894,37.324562,Santa Clara,(408) 295-1043,No website listed,OPERATIONAL
693,SAFEWAY 2815,470 N Santa Cruz Ave,Los Gatos,-121.97952,37.231857,Santa Clara,(408) 354-9708,https://local.safeway.com/safeway/ca/los-gatos/470-n-santa-cruz-ave.html?utm_source=G&utm_medium=Maps&utm_campaign=G+Places,OPERATIONAL
694,7-ELEVEN 14255 A,1413 Kooser Rd,San Jose,-121.89055,37.246185,Santa Clara,(408) 266-9539,https://www.7-eleven.com/locations/ca/san-jose/1413-kooser-rd-14255?yext=14255,OPERATIONAL
695,Costco 1267,6898 Raleigh Rd,San Jose,-121.7962,37.245453000000005,Santa Clara,(408) 908-7929,http://www.costco.com/warehouse-locations/san-jose-CA-1267.html,OPERATIONAL
696,SAFEWAY  1439,785 E El Camino Real,Sunnyvale,-122.01857,37.356594,Santa Clara,(408) 481-3300,https://local.safeway.com/safeway/ca/sunnyvale/785-e-el-camino-real.html?utm_source=G&utm_medium=Maps&utm_campaign=G+Places,OPERATIONAL
697,SAFEWAY  929,2558 Berryessa Rd,San Jose,-121.85812,37.388683,Santa Clara,(408) 272-2287,https://local.safeway.com/safeway/ca/san-jose/2558-berryessa-rd.html?utm_source=G&utm_medium=Maps&utm_campaign=G+Places,OPERATIONAL
698,NOB HILL FOODS  602,777 1st St,Gilroy,-121.58531,37.013535,Santa Clara,(408) 847-4857,https://www.raleys.com/stores/nob-hill-foods-first-gilroy-california/,OPERATIONAL
699,NOB HILL FOODS  604,15710 Los Gatos Blvd,Los Gatos,-121.96096999999999,37.239891,Santa Clara,(408) 356-0421,https://www.raleys.com/stores/nob-hill-foods-los-gatos-los-gatos-california/,OPERATIONAL
700,ROCCA'S MARKET,13335 Monterey Hwy,San Martin,-121.61081000000001,37.085621,Santa Clara,(408) 683-2330,http://roccasmarket.isoars.com/,OPERATIONAL
701,Moffett Field Commissary 1533,67 N Akron Dr,Moffett Field,-122.05835,37.411892,Santa Clara,(650) 386-8211,https://www.commissaries.com/shopping/store-locations/moffett-field,OPERATIONAL
702,SAFEWAY  695,6477 Almaden Expy,San Jose,-121.86071000000001,37.220306,Santa Clara,(408) 268-3511,https://local.safeway.com/safeway/ca/san-jose/6477-almaden-expwy.html?utm_source=G&utm_medium=Maps&utm_campaign=G+Places,OPERATIONAL
703,SAFEWAY 1526,3071 Stevens Creek Blvd,Santa Clara,-121.94926000000001,37.32338,Santa Clara,(408) 248-3305,https://local.safeway.com/safeway/ca/santa-clara/3071-stevens-creek-blvd.html?utm_source=G&utm_medium=Maps&utm_campaign=G+Places,OPERATIONAL
704,SAFEWAY  700,2760 Homestead Rd,Santa Clara,-121.9745,37.339054,Santa Clara,(408) 248-0563,https://local.safeway.com/safeway/ca/santa-clara/2760-homestead-rd.html?utm_source=G&utm_medium=Maps&utm_campaign=G+Places,OPERATIONAL
705,SAFEWAY 705,570 N Shoreline Blvd,Mountain View,-122.08655,37.390675,Santa Clara,(650) 961-4868,https://local.safeway.com/safeway/ca/mountain-view/570-n-shoreline-blvd.html?utm_source=G&utm_medium=Maps&utm_campaign=G+Places,OPERATIONAL
706,SAFEWAY  1682,2811 Middlefield Rd,Palo Alto,-122.12783999999999,37.432514000000005,Santa Clara,(650) 321-8400,https://local.safeway.com/safeway/ca/palo-alto/2811-middlefield-rd.html?utm_source=G&utm_medium=Maps&utm_campaign=G+Places,OPERATIONAL
707,SAFEWAY  763,2605 The Alameda,Santa Clara,-121.9361,37.345684000000006,Santa Clara,(408) 244-6873,https://local.safeway.com/safeway/ca/santa-clara/2605-the-alameda-ave.html?utm_source=G&utm_medium=Maps&utm_campaign=G+Places,OPERATIONAL
708,SAFEWAY  742,1500 Pollard Rd,Los Gatos,-121.98438,37.264523,Santa Clara,(408) 374-2050,https://local.safeway.com/safeway/ca/los-gatos/1500-pollard-rd.html?utm_source=G&utm_medium=Maps&utm_campaign=G+Places,OPERATIONAL
709,SAFEWAY  767,6150 Bollinger Rd,San Jose,-122.01167,37.310463,Santa Clara,(408) 257-3070,https://local.safeway.com/safeway/ca/san-jose/6150-bollinger-rd.html?utm_source=G&utm_medium=Maps&utm_campaign=G+Places,OPERATIONAL
710,LUNARDI MARKET 3,720 Blossom Hill Rd,Los Gatos,-121.96215,37.235458,Santa Clara,(408) 358-1731,https://www.lunardis.com/,OPERATIONAL
711,Lucky 765,430 Blossom Hill Rd,San Jose,-121.82951000000001,37.251213,Santa Clara,(408) 225-6350,No website listed,OPERATIONAL
712,Lucky 727,1350 S Park Victoria Dr,Milpitas,-121.87513999999999,37.416592,Santa Clara,(408) 262-6727,No website listed,OPERATIONAL
713,7-Eleven 14254B,3497 Marten Ave,San Jose,-121.79733,37.350414,Santa Clara,(408) 251-5450,https://www.7-eleven.com/locations/ca/san-jose/3497-marten-ave-14254?yext=14254,OPERATIONAL
714,Grocery Outlet of San Jose 168,2300 Monterey Hwy,San Jose,-121.85888,37.301429999999996,Santa Clara,(408) 292-2132,https://groceryoutlet.com/circulars/storeid/168,OPERATIONAL
715,S & S MARKET,1148 S Capitol Ave,San Jose,-121.82623999999998,37.350266,Santa Clara,(408) 926-9236,No website listed,OPERATIONAL
716,DAI THANH INC,418 S 2nd St,San Jose,-121.88467,37.3302,Santa Clara,(408) 287-3744,No website listed,OPERATIONAL
717,Mexican Brother Market,100 W Alma Ave,San Jose,-121.87534,37.315411,Santa Clara,(408) 295-4354,No website listed,OPERATIONAL
718,Lucky 7 Supermarket,1675 Tully Rd,San Jose,-121.82683,37.321884000000004,Santa Clara,(408) 929-8200,http://www.lucky7super.com/,OPERATIONAL
719,Lucky 757,2027 Camden Ave,San Jose,-121.93271999999999,37.261798999999996,Santa Clara,(408) 559-9484,No website listed,OPERATIONAL
720,Food Maxx 483,5510 Monterey Hwy,San Jose,-121.80006999999999,37.254467,Santa Clara,(408) 972-0681,http://locations.foodmaxx.com/ll/US/CA/San-Jose/5510-Monterey-Highway,OPERATIONAL
721,OCEAN SUPERMARKET,2 S Park Victoria Dr,Milpitas,-121.88425,37.435604,Santa Clara,(408) 942-3388,No website listed,OPERATIONAL
722,SAFEWAY 1196,639 S Bernardo Ave,Sunnyvale,-122.05658999999999,37.37318,Santa Clara,(408) 732-5900,https://local.safeway.com/safeway/ca/sunnyvale/639-s-bernardo-ave.html?utm_source=G&utm_medium=Maps&utm_campaign=G+Places,OPERATIONAL
723,PINK ELEPHANT BAKERY,415 S King Rd,San Jose,-121.84856,37.34544,Santa Clara,(408) 923-3436,http://www.thepinkelephantbakery.com/,OPERATIONAL
724,Rotten Robbie 7,1051 S De Anza Blvd,San Jose,-122.03242,37.308559,Santa Clara,(408) 253-2406,http://www.rottenrobbie.com/,OPERATIONAL
725,Rotten Robbie 45,1555 Saratoga Ave,San Jose,-121.99015,37.293533000000004,Santa Clara,(408) 252-1433,http://www.rottenrobbie.com/,OPERATIONAL
726,TRADER JOE'S  181,15466 Los Gatos Blvd,Los Gatos,-121.9585,37.245106,Santa Clara,(408) 356-2324,https://locations.traderjoes.com/ca/los-gatos/181/?utm_source=Google&utm_medium=Maps&utm_campaign=Google+Places,OPERATIONAL
727,WALGREENS 7080,105 E El Camino Real,Sunnyvale,-122.0321,37.367756,Santa Clara,(408) 991-9013,https://www.walgreens.com/locator/walgreens-105+e+el+camino+real-sunnyvale-ca-94087/id=7080,OPERATIONAL
728,Downtown San Jose Grocery Outlet,272 E Santa Clara St,San Jose,-121.8848,37.338913,Santa Clara,(408) 477-8350,https://groceryoutlet.com/circulars/storeid/231,OPERATIONAL
729,Arteagas Grocers Inc.,2620 Alum Rock Ave,San Jose,-121.83713,37.361401,Santa Clara,(408) 649-6914,https://arteagas.com/,OPERATIONAL
730,Target Store 2605,5630 Corrle Rd,San Jose,-121.86242,37.394199,Santa Clara,(408) 600-3721,https://www.target.com/sl/san-jose-south/2605,OPERATIONAL
731,Walmart Neighborhood Market 3123,3255 Mission College Blvd,Santa Clara,-121.98546999999999,37.388718,Santa Clara,(408) 961-3599,https://www.walmart.com/store/3123/santa-clara-ca/details,OPERATIONAL
732,Rotten Robbie 33,3471 Lafayette St,Santa Clara,-121.95085,37.38335,Santa Clara,(408) 988-5407,http://www.rottenrobbie.com/,OPERATIONAL
733,Madras Groceries,1187 W El Camino Real,Sunnyvale,-122.05538,37.373707,Santa Clara,(408) 746-0808,http://madrasgroceries.com/index.php,OPERATIONAL
734,As Om Inc.,1718 Ocala Ave,San Jose,-121.83408999999999,37.33139,Santa Clara,No formatted_phone_number listed,No website listed,No business_status listed
735,Six To Midnite,5562 Monterey Hwy,San Jose,-121.79739,37.252792,Santa Clara,(408) 629-3501,No website listed,OPERATIONAL
736,Whole Foods Market 10259,777 The Alameda,San Jose,-121.9052,37.331833,Santa Clara,(408) 207-1126,http://www.wholefoodsmarket.com/stores/sanjose,OPERATIONAL
737,Milpitas Grocery Outlet,215 W Calaveras Blvd,Milpitas,-121.91017,37.428515999999995,Santa Clara,(408) 586-8205,https://groceryoutlet.com/circulars/storeid/196,OPERATIONAL
738,6 To Late 4,2875 Senter Rd,San Jose,-121.83896000000001,37.298882,Santa Clara,No formatted_phone_number listed,No website listed,OPERATIONAL
739,DOLLARTREE 7926,1054 S White Rd,San Jose,-121.81958999999999,37.356654999999996,Santa Clara,(408) 904-7994,https://www.dollartree.com/locations/ca/san-jose/7926/?utm_source=Google&utm_medium=Maps&utm_campaign=Google+Places,OPERATIONAL
740,Rotten Robbie 43,1304 Piedmont Rd,San Jose,-121.84711999999999,37.400215,Santa Clara,(408) 259-5535,http://www.rottenrobbie.com/,OPERATIONAL
741,Lucky's Diskount Liquor 1,3290 El Camino Real,Santa Clara,-121.9865,37.352276,Santa Clara,(408) 638-7824,No website listed,OPERATIONAL
742,Safeway 2900,5760 Cottle Rd,San Jose,-121.80386000000001,37.247345,Santa Clara,(408) 362-9255,https://local.safeway.com/safeway/ca/san-jose/5760-cottle-rd.html?utm_source=G&utm_medium=Maps&utm_campaign=G+Places,OPERATIONAL
743,Super Gas & Mart,498 S 4th St,San Jose,-121.88186999999999,37.330284000000006,Santa Clara,(408) 295-4606,No website listed,CLOSED_PERMANENTLY
744,Arteagas Food Center,204 Willow St,San Jose,-121.88236,37.318806,Santa Clara,(408) 899-6080,https://arteagas.com/,OPERATIONAL
745,Battambang Oriental Grocery,1091 McCreery Ave,San Jose,-121.8409,37.342316,Santa Clara,(408) 251-5043,No website listed,OPERATIONAL
746,Bob's Discount Liquor 9,2036 Agnew Rd,Santa Clara,-121.96021999999999,37.394199,Santa Clara,(408) 855-8081,No website listed,OPERATIONAL
747,Middle East Food,26 Washington St,Santa Clara,-121.93825,37.338425,Santa Clara,(408) 248-5112,No website listed,OPERATIONAL
748,Sprouts Farmers Market 433,1771 E Capitol Expy,San Jose,-121.80971000000001,37.308529,Santa Clara,(669) 234-5260,https://www.sprouts.com/store/ca/san-jose/san-jose-capitol-expwy/,OPERATIONAL
749,Rotten Robbie 02,4200 Williams Rd,San Jose,-121.97786,37.308094,Santa Clara,(408) 252-4040,No website listed,OPERATIONAL
750,Prs Foods Inc,1202 Apollo Way,Sunnyvale,-121.99492,37.379124,Santa Clara,(408) 720-9600,http://www.namasteplaza.net/,OPERATIONAL
751,7 Eleven Store 2367 34363B,4156 Monterey Hwy,San Jose,-121.83463,37.277569,Santa Clara,(408) 225-1263,https://www.7-eleven.com/locations/ca/san-jose/4156-monterey-hwy-34363?yext=34363,OPERATIONAL
752,Mountain View Farmers Market,600 W Evelyn Ave,Mountain View,-122.07618000000001,37.393951,Santa Clara,(800) 806-3276,https://www.cafarmersmkts.com/mountain-view-farmers-market,OPERATIONAL
753,Grocery Outlet Of East San Jose 130,331 N Capitol Ave,San Jose,-121.84433,37.371227000000005,Santa Clara,(408) 684-5955,https://groceryoutlet.com/circulars/storeid/130,OPERATIONAL
754,EL BUEN GUSTO BAKERY,436 S King Rd,San Jose,-121.84816000000001,37.345161,Santa Clara,(408) 259-1594,No website listed,OPERATIONAL
755,7-Eleven Store 14281D,2170 Fruitdale Ave,San Jose,-121.9309,37.310646000000006,Santa Clara,(408) 286-0351,https://www.7-eleven.com/locations/ca/san-jose/2170-fruitdale-ave-14281?yext=14281,OPERATIONAL
756,SAFEWAY 1891,235 Tennant Sta,Morgan Hill,-121.63887,37.114506,Santa Clara,(408) 776-9861,https://local.safeway.com/safeway/ca/morgan-hill/235-tennant-station.html?utm_source=G&utm_medium=Maps&utm_campaign=G+Places,OPERATIONAL
757,Jacklin Shell 139,990 Jacklin Rd,Milpitas,-121.89272,37.446861,Santa Clara,(408) 263-5359,https://find.shell.com/us/fuel/10008044-990-jacklin-road,OPERATIONAL
758,6 To Late 5,2051 Scott St,San Jose,-121.92811,37.319874,Santa Clara,(408) 275-9415,No website listed,OPERATIONAL
759,6 To Late 3,3844 Monterey Hwy,San Jose,-121.83901000000002,37.281872,Santa Clara,No formatted_phone_number listed,No website listed,OPERATIONAL
760,R & D Liquor,3120 Alum Rock Ave,San Jose,-121.82753000000001,37.365978000000005,Santa Clara,(408) 929-2792,No website listed,OPERATIONAL
761,6 To Late 6,690 S Almaden Ave,San Jose,-121.88593,37.323959,Santa Clara,No formatted_phone_number listed,No website listed,OPERATIONAL
762,"Chaparral Supermarket, Inc.",1001 E Santa Clara St,San Jose,-121.87041,37.345779,Santa Clara,(408) 998-8028,http://www.chaparralsupermarket.com/,OPERATIONAL
763,7-ELEVEN #29943 A,1430 Fruitdale Ave,San Jose,-121.91606999999999,37.310665,Santa Clara,(408) 294-4916,https://www.7-eleven.com/locations/ca/san-jose/1430-fruitdale-ave-29943?yext=29943,OPERATIONAL
764,Safeway 3095,2980 E Capital Expressway,San Jose,-121.81183999999999,37.330196,Santa Clara,(408) 274-5957,https://local.safeway.com/safeway/ca/san-jose/2980-e-capitol-expy.html?utm_source=G&utm_medium=Maps&utm_campaign=G+Places,OPERATIONAL
765,Sunnyvale Farmers' Market,Murphy Ave.,Sunnyvale,-122.03016000000001,37.376812,Santa Clara,(510) 745-7100,https://uvfm.org/sunnyvale-saturday,OPERATIONAL
766,California Avenue Farmers' Market,California Avenue,Palo Alto,-122.14743,37.423168,Santa Clara,(510) 745-7100,https://uvfm.org/palo-alto-sundays/,OPERATIONAL
767,Eastridge Liquors,1855 Tully Rd,San Jose,-121.82465,37.323357,Santa Clara,(408) 923-2899,No website listed,OPERATIONAL
768,Nilgiris Cash And Carry,118 S Abel St,Milpitas,-121.90833,37.427937,Santa Clara,(408) 956-9509,https://nilgiris-cash-and-carry.business.site/,OPERATIONAL
769,La Rica Panaderia 1,233 S White Rd,San Jose,-121.82526999999999,37.362789,Santa Clara,No formatted_phone_number listed,No website listed,OPERATIONAL
770,Va Palo Alto,3801 Miranda Ave.,Palo Alto,-122.13911,37.401314,Santa Clara,(650) 493-5000,https://www.paloalto.va.gov/,OPERATIONAL
771,Campbell Farmers' Market,Campbell Avenue & 2nd Street,Campbell,-121.94603000000001,37.287052,Santa Clara,(510) 745-7100,https://uvfm.org/campbell-sundays,OPERATIONAL
772,ZAD Grocery,4481 Stevens Creek Blvd,Santa Clara,-121.98085,37.323147,Santa Clara,(408) 899-4482,No website listed,OPERATIONAL
773,Liquor & Food Mart,734 S Fair Oaks Ave,Sunnyvale,-122.02479,37.362301,Santa Clara,(408) 733-7001,No website listed,OPERATIONAL
774,OAKWOOD MARKET,2106 Oakwood Dr,Palo Alto,-122.14771999999999,37.464993,Santa Clara,(650) 324-1937,http://showmelocal.sgvtribune.com/,OPERATIONAL
775,7-Eleven 14299 C,1335 S Bascom Ave,San Jose,-121.93173,37.3008,Santa Clara,(408) 286-2312,https://www.7-eleven.com/locations/ca/san-jose/1335-s-bascom-ave-14299?yext=14299,OPERATIONAL
776,7 Eleven 2366- 14333E,2640 California St,Mountain View,-122.11169,37.406345,Santa Clara,(650) 941-7792,https://www.7-eleven.com/locations/ca/mountain-view/2640-california-st-14333?yext=14333,OPERATIONAL
777,Downtown Palo Alto Farmers' Market,601 Gilman St,Palo Alto,-122.15965,37.445717,Santa Clara,(650) 427-9253,http://pafarmersmarket.org/,OPERATIONAL
778,International Express Market,5899 Santa Teresa Blvd,San Jose,-121.83079,37.236805,Santa Clara,(408) 972-4444,No website listed,OPERATIONAL
779,Tana Ethio Market,1358 S Winchester Blvd,San Jose,-121.94981000000001,37.299690000000005,Santa Clara,(408) 871-8199,No website listed,OPERATIONAL
780,Super India,2772 Aborn Rd,San Jose,-121.79257,37.313705,Santa Clara,(408) 528-0608,http://www.superindiaonline.com/,OPERATIONAL
781,San Miguel Taqueria Y Carniceria,960 E Santa Clara St,San Jose,-121.8713,37.345290999999996,Santa Clara,(408) 326-2386,No website listed,OPERATIONAL
782,7 Eleven Store 22277C,1771 Clear Lake Ave,Milpitas,-121.87241000000002,37.418762,Santa Clara,(408) 946-8233,https://www.7-eleven.com/locations/ca/milpitas/1771-clearlake-ave-22277?yext=22277,OPERATIONAL
783,Starbrite Market 1,893 Delmas Ave,San Jose,-121.89313999999999,37.317211,Santa Clara,(408) 295-3712,No website listed,OPERATIONAL
784,Rotten Robbie 4,310 N Whisman Rd,Mountain View,-122.0595,37.397594,Santa Clara,(650) 965-2609,http://www.rottenrobbie.com/,OPERATIONAL
785,Bascom Liquor And Food,3750 S Bascom Ave,San Jose,-121.9468,37.259811,Santa Clara,(408) 371-2145,https://bascom-liquor-food.business.site/?utm_source=gmb&utm_medium=referral,OPERATIONAL
786,Chevron 1765,10023 S de Anza Blvd,Cupertino,-122.03243,37.322521,Santa Clara,(408) 996-9906,http://www.chevronwithtechron.com/stations/station-finder.aspx,OPERATIONAL
787,Abadir Grocery,1065 Lafayette St,Santa Clara,-121.9437,37.350777,Santa Clara,(408) 241-1636,No website listed,OPERATIONAL
788,Rotten Robbie 24,605 S White Rd,San Jose,-121.82236999999999,37.359612,Santa Clara,(408) 926-3510,http://www.rottenrobbie.com/,OPERATIONAL
789,Grocery Outlet of Palo Alto,3445 Alma St,Palo Alto,-122.12447,37.418667,Santa Clara,(650) 561-4394,https://groceryoutlet.com/circulars/storeid/253,OPERATIONAL
790,Santa Clara Produce Market 1,805 Scott Blvd,Santa Clara,-121.95936999999999,37.343971,Santa Clara,(408) 247-0997,No website listed,OPERATIONAL
791,A1 Groceries,143 E Virginia St,San Jose,-121.87868999999999,37.325466,Santa Clara,No formatted_phone_number listed,No website listed,No business_status listed
792,H & R Liquors 1,900 Lincoln Ave,San Jose,-121.90536000000002,37.314178000000005,Santa Clara,(408) 280-1986,No website listed,OPERATIONAL
793,Namaste Plaza,1763 E Capitol Expy,San Jose,-121.8096,37.30867,Santa Clara,(408) 520-7799,https://namastecart.com/,OPERATIONAL
794,Cal Foods Deli,195 S 28th St,San Jose,-121.86198,37.345737,Santa Clara,(408) 293-0550,No website listed,OPERATIONAL
795,7 Eleven 25717E,21490 Mcclellan Rd,Cupertino,-122.0501,37.315563,Santa Clara,(408) 257-9104,https://www.7-eleven.com/locations/ca/cupertino/21490-mcclellan-rd-25717?yext=25717,OPERATIONAL
796,Clydes Liquor,3963 Snell Ave,San Jose,-121.8412,37.27602,Santa Clara,(408) 225-0800,https://clydes-liquor-store.business.site/,OPERATIONAL
797,7-Eleven 16687C,615 S Rengstorff Ave,Mountain View,-122.10146,37.396542,Santa Clara,(650) 968-9077,https://www.7-eleven.com/locations/ca/mountain-view/615-south-rengstorff-16687?yext=16687,OPERATIONAL
798,Baby Nutrition,3117 Alum Rock Ave,San Jose,-121.82758000000001,37.366146,Santa Clara,(408) 937-1901,No website listed,OPERATIONAL
799,Target 3224,19499 Stevens Creek Blvd,Cupertino,-122.01137,37.323059,Santa Clara,(669) 230-8080,https://www.target.com/sl/cupertino-main-street/3224,OPERATIONAL
800,La Raza Super Market,960 E Santa Clara St,San Jose,-121.8713,37.345295,Santa Clara,(408) 477-2646,No website listed,OPERATIONAL
801,Whole Foods Market 10633,2732 Augustine Dr,Santa Clara,-121.97646999999999,37.38232,Santa Clara,(408) 562-9162,http://www.wholefoodsmarket.com/stores/santaclara,OPERATIONAL
